club_id,club_name,club_short_name,country,state,city,parent_club_id
1496,InclusivHEMA,-,-,BR,Santos,-
97,Meyer Freifechter Guild,-,-,-,-,-
104,Schola St. George,-,-,-,-,-
301,School of European Swordsmanship,-,-,-,-,-
851,Suomen Historiallisen Miekkailun Seura,-,Finland,-,Helsinki,301
619,Society for Creative Anachronism,SCA,-,-,-,-
78,Company of Saint Jude,-,United States,-,-,619
1137,Society of American Military Swordsmanship,-,-,-,-,-
1136,Society of American Military Swordsmanship Kabul,-,Afghanistan,-,Kabul,1137
1533,SwordFight,-,-,UK,London,-
1406,Zwerch von Links,-,-,DE,Otterberg,-
1521,Vardan,-,Armenia,-,Yerevan,-
1205,Circulo de Esgrima Histórica Cruz del Sur,-,Argentina,La Plata,Buenos Aires,-
1206,Kriegwolfe,-,Argentina,Santa Fé,Ciudad de Santa Fé,-
1210,Sala de Armas Tercio de Ultramar,-,Argentina,Buenos Aires,Mar del Plata,-
1202,Scolari Cordoba,-,Argentina,Cordoba,Cordoba,-
1203,Scolari Rafaela,-,Argentina,Rafaela,Santa Fé,-
980,Cor et Chalybs,-,Austria,-,Bregenz,-
1352,Dao Schule Tirol,-,Austria,-,Tirol,-
552,Dreynschlag,-,Austria,-,Vienna,-
1240,Equinox,-,Austria,-,Vienna,-
541,Fior della Spada,-,Austria,-,Vienna,-
561,Freyfechter Wien,-,Austria,-,Vienna,-
231,Historisches Fechten Baden,-,Austria,-,"Bad Vöslau, Baden",-
550,Historisches Fechten St. Pölten,-,Austria,-,St. Pölten,-
551,Historisches Fechten Waldviertel Nord,-,Austria,-,Gastern,-
852,INDES,-,Austria,-,-,-
1275,INDES Feldbach,-,Austria,-,Feldbach,852
1456,INDES Feldkirchen - Himmelberg,-,Austria,-,Himmelberg,852
563,INDES Graz,-,Austria,-,Graz,852
1346,INDES Klagenfurt,-,Austria,-,Klagenfurt,852
553,INDES Korneuburg,-,Austria,-,Korneuburg,852
564,INDES Linz,-,Austria,-,Linz,852
1089,INDES Regensburg,-,Austria,-,Regensburg,852
268,INDES Salzburg,-,Austria,-,Salzburg,852
560,INDES Wien,-,Austria,-,Vienna,852
543,Klingenspiel,-,Austria,-,Vienna,-
1199,Kunst des Historischen Fechtens Tirol,KdhF_Tirol,Austria,-,Innsbruck,-
687,PSV-Graz,-,Austria,-,Graz,-
1348,Sprezzatura,-,Austria,-,Vienna,-
805,Union Fechtverein Die Lange Schneyd,-,Austria,-,Vienna,-
1347,Verein für gerüsteten Vollkontaktkampf Wien,VGVK-Wien,Austria,-,Vienna,-
562,Wiener Fecht- und Ausdauersportrunde,WFA,Austria,-,Vienna,-
542,Wölfe des Pfalzgrafen,-,Austria,-,Vienna,-
328,Adelaide Sword Academy,-,Australia,South Australia,Adelaide,-
503,Australis Scherma Scuola di Spada e Sciabola,-,Australia,Queensland,Camp Hill,-
1349,Ballarat HEMA Academy,-,Australia,Victoria,Ballarat,-
1195,Ballarat Medieval Combat,-,Australia,Victoria,Ballarat,-
1374,Barwon Academy of Arms,-,Australia,Victoria,Geelong,-
595,Big Tree Combat Academy,-,Australia,New South Wales,Sydney,-
327,Brisbane School of Iberian Swordsmanship,-,Australia,Queensland,Brisbane,-
324,Brisbane Swords,-,Australia,Queensland,Brisbane,-
1102,Cairns European Sword Academy,CESA,Australia,Queensland,Cairns,-
330,Collegium in Armis,-,Australia,Queensland,Brisbane,-
196,Fechtschule Victoria,-,Australia,Victoria,Canterbury,-
806,Fitzroy College of Arms,-,Australia,Victoria,Melbourne,-
1301,Flinders Fencing Club,FFC,Australia,South Australia,Adelaide,-
1468,Gemeiner Savate Academy,-,Australia,Brisbane,Gold Coast,-
145,Glen Lachlann Estate College of Arms,GLECA,Australia,Victoria,Melbourne,-
573,Historical European Fighting Tasmania,HEFT,Australia,Tasmania,Hobart,-
596,Historical European Rapier Academy,-,Australia,South Australia,Adelaide,-
329,Historical School of Defence Toowoomba,-,Australia,Queensland,Toowoomba,-
332,House Darksun,-,Australia,Western Australia,Perth,-
1174,Invicta Fencing Academy,-,Australia,Queensland,Mount Gravatt,-
444,Ironclad Academy Of The Sword,-,Australia,South Australia,Adelaide,-
1175,KDF Australia,-,Australia,Queensland,City of Townsville,-
1401,Knights of the Free Company,-,Australia,Western Australia,Perth,-
331,Leongatha Medieval Society,-,Australia,Victoria,Leongatha,-
885,Melbourne Fencing Society,-,Australia,Victoria,Melbourne,-
496,Melbourne Messer Club,-,Australia,Victoria,Melbourne,-
1478,Melbourne Swordplay Guild,-,Australia,Victoria,Melbourne,-
51,New England Medieval Arts Society,NEMAS,Australia,New South Wales,Armidale,-
932,Northside Smallsword Group,-,Australia,Queensland,Brisbane,-
494,Prima Spada School of Fence,-,Australia,Queensland,"Sunshine Coast, Brisbane, Mount Gravatt East, Ipswich, Tasmania",-
591,Scholar Victoria,-,Australia,Victoria,Melbourne,-
333,School of Historical Defense Arts,-,Australia,Queensland,Brisbane,-
770,Spada di Bolognese,-,Australia,Queensland,Rochedale,-
202,Stoccata School of Defence,-,Australia,New South Wales,"Sydney Metro, Blue Mountains, Port Douglas, Canberra,  Tasmania",-
325,Sword Fighter Gold Coast,-,Australia,Queensland,Gold Coast,-
1400,Sword-Point College of Arms,-,Australia,West Australia,"Armadale, Wandi",-
326,The School of Historical Fencing,-,Australia,Victoria,Melbourne,-
1015,Ursa Major HEMA Academy,-,Australia,Western Australia,Perth,-
279,Vanguard Swordsmanship Academy,-,Australia,Queensland,Ashgrove,-
515,Victorian Historical Combat Academy,-,Australia,Victoria,Melbourne,-
1198,Arte Mortiferum,-,Belgium,-,Sint-Niklaas,-
47,De Hallebardiers,-,Belgium,-,Brugge,-
811,Des Keysers Ghesellen,-,Belgium,-,Leuven,-
1464,IIème Rguingonne,-,Belgium,-,Villers-la-ville,-
276,Invirtus,-,Belgium,-,Aarschot,-
1460,Les Sept Epées,-,Belgium,-,Cuesmes,-
1264,Meyer May Rise,-,Belgium,-,Braives,-
1532,MEZ,-,Belgium,-,Ghent,-
1492,Spatha Medievae,-,Belgium,-,Liege,-
48,Sumus Soldani,-,Belgium,-,Mechelen,-
277,SwArta,-,Belgium,-,Brasschaat,-
1459,Via Bruxellensis,-,Belgium,-,Brussels,-
1477,Bulgarian School of Ancient Military Arts - Velichie,-,Bulgaria,-,Velichie,-
1320,Fechtschule Sofia,-,Bulgaria,-,Sofia,-
1338,FORTE - Historical Fencing,-,Bulgaria,-,Sofia,-
1421,Freifechter Sofia,-,Bulgaria,-,Sofia,-
1319,Historical fencing - Stara Zagora,-,Bulgaria,-,Stara Zagora,-
1274,Historical Swordsmanship - Angel Chernaev,-,Bulgaria,-,Sofia,-
485,School of Historical Swordsmanship MOTUS,-,Bulgaria,-,Sofia,-
1267,Academia de Esgrima Histórica Carioca,-,Brazil,Rio de Janeiro,Rio de Janeiro,-
645,AEEA Stahlfechter,-,Brazil,-,São Paulo,-
1474,Aes Atibaia,-,Brazil,-,São Paulo,-
1512,Alcateia de Prata,-,Brazil,-,Rio Claro,-
1050,Arquearia e Combate Medieval - SCAM,-,Brazil,-,Florianópolis,-
1051,Batalha Cênica Salvador,-,Brazil,-,Salvador,-
646,Casa Vieira Turaine,-,Brazil,-,Rio de Janeiro,-
1519,Clube 98,-,Brazil,-,Vitoria da Conquista,-
1511,Compagnia di Marte,-,Brazil,-,São Caetano,-
1513,Escola Dardi,-,Brazil,-,Belo Horizonte,-
1266,Escola de Artes Marciais Históricas Grifo de Fogo,-,Brazil,Paraná,Curitiba,-
826,Espada de Avis,-,Brazil,-,São Paulo,-
1052,Espada de Prata,-,Brazil,-,São Paulo,-
1495,Espada Selvagem,-,Brazil,-,-,-
1510,Falcão Negro,-,Brazil,-,Piracicaba,-
1534,Farfalla di Ferro,-,Brazil,-,Ipanema,-
803,Javalis Combate Medieval,-,Brazil,-,São Paulo,-
804,Karlbrüder esgrima histórica,-,Brazil,-,São Carlos,-
649,Ordem do Teixo,-,Brazil,-,Paranavaí,-
648,Sala de Armas Desterro,-,Brazil,-,Florianópolis,-
1509,Wolfsherz,-,Brazil,-,Juiz de Fora,-
621,Diestro,-,Belarus,-,-,-
1010,Diestro Minsk,-,Belarus,-,Minsk,621
1011,Diestro Vitebsk,-,Belarus,-,Vitebsk,621
1007,Diestro Sochi,-,Russia,-,Sochi,621
633,Duellatoria Alba,-,Belarus,-,Minsk,-
13,Minsk HEMA Fight Club,-,Belarus,-,Minsk,-
676,A.M.H.E. Rimouski,-,Canada,Québeck,Rimouski,-
1500,Academie Cavallo,-,Canada,British Columbia,Langley,-
381,Academie Duello,-,Canada,British Columbia,Vancouver,-
681,Académie Scrimicie,-,Canada,Québeck,Québeck,-
369,Academy of European Medieval Martial Arts,AEMMA,Canada,Ontario,"Toronto, Guelph, Stratford, Digby, Ottawa",-
1427,Ardimento,-,Canada,-,Kahnawake,-
1506,Bataireacht and Historical Fencing,-,Canada,Ontario,Ottawa,-
152,Blood and Iron Martial Arts,B&I,Canada,British Columbia,Burnaby,-
759,"Blood and Iron Martial Arts, New Mexico",-,United States,New Mexico,Silver City,152
1505,Branta School of Arms,-,Canada,Ontario,Kitchener,-
1149,Calgary Fellowship of the Sword,-,Canada,Alberta,Calgary,-
1426,Club d'escrime Historique Destreza Nova Laval,-,Canada,Quebeck,Laval,-
1026,Comox Valley Combat Guild,-,Canada,British Columbia,"Courtenay, Campbell River",-
1023,Dueling Weapons Academy of Renaissance Fencing,-,Canada,Ontario,Barrie,-
1012,Edmonton German Fencing Guild,-,Canada,Alberta,Edmonton,-
1333,Edmonton German Fencing Guild,-,Canada,Alberta,Edmonton,-
1106,Edmonton Historical Martial Arts,-,Canada,Alberta,Edmonton,-
1452,Highland Sword Fighting Guild,-,Canada,Ontario,Aurora,-
978,Ironwood Sword School,-,Canada,Ontario,Enterprise,-
677,Kingston Irish Fighting Arts,-,Canada,Ontario,Kingston,-
194,La Compagnie Médiévale,-,Canada,Quebeck,Montreal,-
1445,La Garde du Lys,-,Canada,Quebec,Terrebonne,-
91,Les Maitres d'Armes,-,Canada,Ontario,Ottawa,-
979,Maritime Sword School,-,Canada,Prince Edward Island,Charlottetown,-
653,Medieval Swordplay Canada,-,Canada,Ontario,Barrie,-
739,Mustang Sword Club,-,Canada,Ontario,London,-
1165,NEMESIS Historical Fencing,-,Canada,Ontario,Barrie,-
1457,Niagara Historical Fencing,-,Canada,Ontario,St. Catharines,-
678,Niagara School of Arms,-,Canada,Ontario,St. Catharines,-
201,Okanagan Combat Guild,-,Canada,British Columbia,Kelowna,-
726,Ottawa Historical Fencing Society,-,Canada,Ontario,Ottawa,-
84,Ottawa Meyer,-,Canada,Ontario,Ottawa,-
679,Ottawa Swordplay,-,Canada,Ontario,Ottawa,-
457,Saskatoon Historical Fencing,-,Canada,Saskatchewan,Saskatoon,-
1455,Signum Corvus School of Arms,-,Canada,Ontario,Mississauga,-
1454,Society for Historical Arms Research and Practice,SHARP,Canada,Ontario,Peterborough,-
977,Southern Ontario Historical Fencing Association,-,Canada,Ontario,Grimsby,-
1323,Superior HEMA,-,Canada,Ontario,Thunder Bay,-
1075,Sword Fight Canada,-,Canada,British Columbia,Valemount,-
1499,Swordfighters Martial Arts & Self Defence,-,Canada,British Columbia,Vernon,-
72,The Academy of European Swordsmanship,-,Canada,Alberta,Edmonton,-
197,The Cateran Society,-,Canada,Ontario,-,-
1074,Broadsword Academy Manitoba,-,Canada,Manitoba,Winnipeg,197
993,Niagara Broadsword Academy,-,Canada,Ontario,St. Catharines,197
153,The Forge: Western Martial Arts,The Forge: WMA,Canada,Alberta,Calgary,-
1163,The Historical Combat Collective,-,Canada,British Columbia,-,-
1453,Toronto Historical Combatants,-,Canada,Ontario,Toronto,-
401,Valkyrie Western Martial Arts Assembly,-,Canada,British Columbia,Vancouver,-
764,Valour Historical European Martial Arts Academy,-,Canada,Manitoba,Winnipeg,-
1065,Vancouver Historical Fencing,-,Canada,British Columbia,Burnaby,-
1148,Wardens of the Red Tower,-,Canada,Alberta,Calgary,-
1480,WHFC Valour,-,Canada,Manitoba,Winnipeg,-
1046,Winnipeg Historical Fencing Club,-,Canada,Manitoba,Winnipeg,-
1073,Winnipeg Knightly Arts,-,Canada,Manitoba,Winnipeg,-
1342,AMHE Valagin Neuchatel,-,Switzerland,-,Neuchatel,-
1343,AMR Neuchatel,-,Switzerland,-,Neuchatel,-
49,Artes Certaminis,-,Switzerland,-,Gais,-
1340,Calhistar-Cercle des Armes,-,Switzerland,-,Lausanne,-
791,Compagnia del Corvo Grigio,-,Switzerland,-,Bellizona,-
509,Die Baskerhunde,-,Switzerland,-,Wiliberg,-
512,École Lémanique d'Arts et d'Actions,-,Switzerland,-,Lausanne,-
506,Freifechter Basel,-,Switzerland,-,Basel,-
513,Gladiatorium Artium Friburgensis Schola,GAFSchola,Switzerland,-,Fribourg,-
259,Gladius et Codex,GetC,Switzerland,-,"Zürich, Basel",-
510,Historicae Artes Dimicationes Ustrachense,HADU,Switzerland,-,Gossau - Zürich,-
1156,Historische Kampfkunst Luzern,-,Switzerland,-,Luzern,-
1197,Iarumas,-,Switzerland,-,Lausanne,-
280,Leo et Ursus,-,Switzerland,-,Bern,-
511,Les Maciliens,-,Switzerland,-,Neuchâtel,-
505,Liberi Ensis,-,Switzerland,-,Thun,-
507,Militia Genavae,-,Switzerland,-,Genève,-
1508,Mittelalterverein Bern,-,Switzerland,-,Bern,-
1152,Reisläufer Bern,-,Switzerland,-,Bern,-
794,Säbelrassler,-,Switzerland,-,Winterthur,-
793,Sub Brach,-,Switzerland,-,Solothurn,-
1344,Unil'AMHE,-,Switzerland,Lausanne,http://unilamhe.ch/,-
1341,WEMAC Schaffhausen,-,Switzerland,-,Schaffhausen,-
683,Academia de Esgrima Histórica Bolognese,-,Chile,-,Santiago,-
622,Academia de esgrima histórica de Chile,-,Chile,-,Santiago,-
628,Ausdauer,-,Chile,-,Concepción,-
684,Centro Cruzado,-,Chile,-,Santiago,-
629,Centro de Esgrima Histórica,-,Chile,-,Santiago,-
623,Compañía Espada de Plata,-,Chile,-,Santiago,-
624,Esgrima Histórica Concepción,-,Chile,-,Concepción,-
625,Esgrima Histórica Valdivia,-,Chile,-,Valvida,-
627,Húsar,-,Chile,-,Chiloé,-
1536,Praelium Australis,-,Chile,-,Santiago,-
533,Sociedad de Esgrima Historica de Aconcagua,-,Chile,-,San Felipe,-
1042,Armed Panda Historical Martial Arts Institute,-,China,Yunnan Province,Kunming,-
1037,CAFA Swordmanship Club,-,China,Beijing (capital),Beijing,-
602,Chungking Historical Fighting Guild,-,China,-,Chongqing,-
1061,Cold Weapon Fighting Club,-,China,-,Suqian,-
1036,DouZhanSheng Club,-,China,Guangdong Province,Guangzhou,-
1043,Easy Swordplay Union,-,China,Guangxi Province,Nanning,-
1040,Five Weapons Militia Barrack,-,China,Fujian province,Fuzhou,-
603,Flaming Phoenix Historical Combat Guild,-,China,-,Wuhan,-
1063,Guizhou Archer and Swordsman,-,China,-,Guiyang,-
1059,Hangzhou Historical Martial Arts Association,-,China,-,Hangzhou,-
1060,Hebei Glamorgan Fencing Bruders,-,China,-,Shijiazhuang,-
1054,Henan Historical Fencing Union,-,China,-,Zhengzhou,-
1041,Historical Fencing Group of WHU,-,China,Hubei Province,Wuhan,-
1035,HuNan Xiangjun Mercenary of Regiment,-,China,Hunan Province,Changsha,-
1044,Jian Gong Academy,-,China,Guangdong Province,Guangzhou,-
1038,Nanjing Axon Martial Arts,-,China,Jiangsu Province,Nanjing,-
989,Order of Zephyr,-,China,Guangdong Province,Guangzhou,-
604,Rivers HEMA Club,-,China,-,Chengdu,-
1055,Shandong Historical Martial Arts Union,-,China,-,Jinan,-
1053,Shanghai Historical Martial Arts,-,China,-,Shanghai,-
1027,Shanghai Huben Historical Martial Arts,-,China,-,Shanghai,-
1058,Shengtang,-,China,-,Shijiazhuang,-
1062,Suzhou Wuyan Historical European Martial Arts and Culture Club,-,China,-,Suzhou,-
988,Sword Fencers Training Camp,-,China,-,-,-
1057,The Cloud Hermits Fencing Society,-,China,-,Hangzhou,-
1056,Tieshan Club,-,China,-,Jiangyin,-
1039,Warrior Hermit Society of TianJin,-,China,Tianjin (Municipality),Tianjin,-
697,Cyprus ΗΕΜΑ Club,-,Cyprus,-,Nicosia,-
985,Adeptus,-,Czech Republic,-,Brno,-
1418,Ars Dimicatoria,-,Czech Republic,-,Praha,-
285,Digladior,-,Czech Republic,-,Praha,-
788,Digladior Mladá Boleslav,-,Czech Republic,-,Mladá Boleslav,285
787,Digladior Plzeň,-,Czech Republic,-,Plzeň,285
393,Dobrovoľný Šerm,-,Czech Republic,-,Brno,-
983,Duelanti od Svatého Rocha,Duelanti od sv. Rocha,Czech Republic,-,Praha,-
1171,HELOPS,-,Czech Republic,-,-,-
1357,Hema Praha,-,Czech Republic,-,Praha,-
1387,IPMAF Kombatan Kali Presas Style Czech Republic,-,Czech Republic,-,Brno,-
1097,Lanistae liberi Pragenses,-,Czech Republic,-,Praha,-
1417,Manus Regis,-,Czech Republic,-,Praha,-
1507,Pankration Gym,-,Czech Republic,-,Pribram,-
288,Pardubický spolek šermířský,PSA,Czech Republic,-,Pardubice,-
1125,Poslední Argument,-,Czech Republic,-,Praha,-
1273,Rapír klub Praha,Rapier club Prague,Czech Republic,-,Praha,-
790,Rotyka,-,Czech Republic,-,Praha,-
655,Rožnovsky šermirsky klub,RŠK,Czech Republic,-,Rožnov,-
1395,SBA Praha,-,Czech Republic,-,Praha,-
1115,Šermírna Luka,-,Czech Republic,-,Luka nad Jihlavou,-
362,SHŠ Krkavci,-,Czech Republic,-,Praha,-
1389,SHŠ Tizon Havířov,-,Czech Republic,-,Havířov,-
1516,Škola Boje Praha,-,Czech Republic,-,Prague,-
290,Škola šermu Paridon,-,Czech Republic,-,Brno,-
286,Bellátor,-,Czech Republic,-,Velké Meziříčí,290
786,Brněnští Fechteři,-,Czech Republic,-,Brno,290
1096,Manu Forti,-,Slovakia,-,Bratislava,290
1391,Sokol Frýdek-Místek Taekwondo,-,Czech Republic,-,Frýdek-Místek,-
1390,Soukromá škola bojových umění Honorra,-,Czech Republic,-,Bohumín,-
1157,Sportovní šerm Tábor,-,Czech Republic,-,Tábor,-
446,T. J. Sokol České Budějovice,-,Czech Republic,-,České Budějovice,-
1393,X-Fight Club Ostrava,-,Czech Republic,-,Ostrava,-
296,Zlínská Šermírská Společnost,-,Czech Republic,-,Zlín,-
927,7Schwerter,-,Germany,-,Ludwigsburg,-
673,Ad Arma,-,Germany,-,Witten,-
1071,Alte Kampfkunst,-,Germany,-,Wuppertal,-
450,Alte Schule - Historisches Fechten Bochum,-,Germany,-,Bochum,-
269,Arts of Mars,-,Germany,-,Salzhemmendorf,-
1119,ASV Mannheim,-,Germany,-,Mannheim,-
661,ASV Ossweil,-,Germany,-,Ludwigsburg,-
313,Bellum Nobile,-,Germany,-,Düsseldorf,-
672,Berliner Rittergilde,-,Germany,-,Berlin,-
1465,Braunschweiger Fechtkultur,-,Germany,-,Braunschweig,-
299,Brückenschlag,-,Germany,-,Heinsberg,-
891,Bunte Schar Budenheim,-,Germany,-,Budenheim,-
768,Chemnitzer Polizeisportverein,-,Germany,-,Chemnitz,-
1262,Deathcorps Unicorns,-,Germany,-,Goslar,-
539,Der Fechtboden,-,Germany,-,Grossefehn,-
481,Die Freifechter - Gesellschaft für historische Fechtkunst e.V.,-,Germany,-,Köln,-
1488,Dimicator Schola,-,Germany,-,Hamburg,-
1381,Drei Helme der TG Landshut,-,Germany,-,Landshut,-
263,Europäische Schwertkunst,-,Germany,-,-,-
868,Europäische Schwertkunst Augsburg,-,Germany,-,Augsburg,263
867,Europäische Schwertkunst Erding,-,Germany,-,Erding,263
864,Europäische Schwertkunst München,-,Germany,-,München,263
869,Europäische Schwertkunst Pleinfeld,-,Germany,-,Pleinfeld,263
865,Europäische Schwertkunst Puchheim,-,Germany,-,Puchheim,263
866,Europäische Schwertkunst Starnberg,-,Germany,-,Starnberg,263
946,Fechtergilde Aurich,-,Germany,-,Aurich,-
810,Fechtschule Asteria,-,Germany,-,Lüneburg,-
890,Fechtschule Schrankhut,-,Germany,-,Köllerbach,-
1272,Fencing Club Dresden,-,Germany,-,Dresden,-
1151,Freifechter,-,Germany,-,Cologne,-
557,Freyfechter Augustini,-,Germany,-,München,-
945,Gilde Bonn,-,Germany,-,Bonn,-
558,Gladiatores München,-,Germany,-,München,-
1020,Gladiatores Stuttgart,-,Germany,-,Stuttgart,-
1019,Gladii Pontis,-,Germany,-,Schorndorf,-
142,Grün-Weiß Holten,-,Germany,-,Holten,-
44,Hammaborg,-,Germany,-,Hamburg,-
1466,HEMA Köln,-,Germany,-,Köln,-
1234,Henger SV,-,Germany,Bavaria,Postbauer-Heng bei Neumarkt i. d. Oberpfalz,-
1355,Historisches Fechten – Judo-Club Herrenberg e.V.,-,Germany,-,Herrenberg,-
933,Historisches Fechten Gießen,-,Germany,-,Gießen,-
1265,Historisches Fechten Rosenheim,-,Germany,-,Rosenheim,-
1382,Historisches Fechten Würzburg,-,Germany,-,Würzburg,-
271,Historisches Schwertfechten Nordhessen,-,Germany,-,Kassel,-
721,HSG Schwertkunst,-,Germany,-,Erfurt,-
799,HTW Berlin,-,Germany,-,Berlin,-
1339,IGLS Würzburg,-,Germany,-,Würzburg,-
720,In MOTU,-,Germany,-,Ilfeld,-
800,INDES Halle,-,Germany,-,Halle a. d. Saale,-
1120,Jaekleins Spieße,-,Germany,-,Sternenfels,-
802,Kampfhus,-,Germany,-,Hirschhorn,-
1122,KdF Jena,-,Germany,-,Jena,-
798,KdF Leipzig,-,Germany,-,Leipzig,-
674,Kenshinkai Berlin e. V.,-,Germany,-,Berlin,-
1259,Kielhau,-,Germany,-,Kiel,-
727,Klopffechters Erben,-,Germany,-,Bremen,-
514,Krifon,-,Germany,-,-,-
859,Krifon Edingen,-,Germany,-,Edingen,514
863,Krifon Herford,-,Germany,-,Herford,514
862,Krifon Koblenz,-,Germany,-,Koblenz,514
861,Krifon Mainz,-,Germany,-,Mainz,514
860,Krifon Worms,-,Germany,-,Worms,514
1487,Meisterhauw,-,Germany,-,Erlangen,-
1072,MTV 1846 Giessen,-,Germany,-,Giessen,-
150,Ochs,-,Germany,-,-,-
686,Ochs Bamberg,-,Germany,-,Bamberg,150
556,Ochs Landshut,-,Germany,-,Landshut,150
559,Ochs München,-,Germany,-,München,150
1118,Ochs Oberland,-,Germany,-,Oberland,150
555,Ochs Pfarrkirchen,-,Germany,-,Pfarrkirchen,150
1260,Opus Gladii,-,Germany,-,Ulm,-
671,Pfälzer Schwertlöwen,-,Germany,-,Neustadt/Wstr.,-
537,Polizeisportverein Karlsruhe e. V.,-,Germany,-,Karlsruhe,-
767,PSV Cottbus,-,Germany,-,Cottbus,-
926,Quinque Verba,-,Germany,-,Nürnberg,-
658,Ritterschaft zu Gmünd,-,Germany,-,Schwäbisch Gmünd,-
1166,Saalefechter,-,Germany,-,Rudolstadt,-
540,SC Borchen,-,Germany,-,Borchen,-
1372,Schildwache Potsdam,-,Germany,-,Berlin,-
1263,Schule des inneren Schwertes,-,Germany,-,Konstanz,-
278,Schwabenfedern,-,Germany,-,Ulm,-
538,Schwert und Bogen,-,Germany,-,Nürnberg,-
801,Schwert-Greifen Rostock,-,Germany,-,Rostock,-
132,Schwertspiel Dresden,-,Germany,-,Dresden,-
773,Scuola di Scherma,-,Germany,-,Brey,-
657,Solve et Coagula e.V.,-,Germany,-,Fulda,-
1239,Sportbund DJK Rosenheim,-,Germany,-,Rosenheim,-
656,Stahlakademie,-,Germany,-,Leipzig,-
1261,Strîtschar,-,Germany,-,Sexau,-
462,Studio Neues Fechten,-,Germany,-,Essen,-
750,Tremonia Fechten,-,Germany,-,Dortmund,-
1117,Turngemeinde Landshut,TG Landshut,Germany,-,Landshut,-
574,Turngemeinde Münster,TG Münster,Germany,-,Münster,-
1047,TVG Steele 1863 e.V.,-,Germany,-,Esse,-
659,Twerchhau e. V. Berlin,-,Germany,-,Berlin,-
696,Zornhau,-,Germany,-,Offenbach am Main,-
924,Aros Historical Fencing Guild,-,Denmark,-,Aarhus,-
23,Axelved Historic Fencing Society,AHFS,Denmark,-,Rønnede,-
1471,Frederiksborg Historiske Fægteklub,-,Denmark,-,Copenhagen,-
1470,Hafnia Longsword Akademi,-,Denmark,-,Copenhagen,-
1472,HEMA Aalborg,-,Denmark,-,Aalborg,-
18,HEMA Esbjerg,-,Denmark,-,Esbjerg,-
1327,HEMA Hobro,-,Denmark,-,Hobro,-
1469,Københavns Fægteklub,-,Denmark,-,Copenhagen,-
10,Københavns Historiske Fægteklub,KHFK,Denmark,-,Copenhagen,-
956,Freifechter Revals,-,Estonia,-,Tallinn,-
565,100Tolos HEMA,-,Spain,-,A Coruña,-
895,Academia Asturiana de la Espada,-,Spain,-,Llanera,-
580,Academia da Espada,-,Spain,-,A Coruña,-
1185,Academia da Espada Hellas,-,Greece,-,Athens,580
1132,Arte do Combate,-,Spain,-,Santiago,-
392,Asociación Española de Esgrima Antigua,-,Spain,-,Madrid,-
694,Duo Bellum,-,Spain,-,Barcelona,392
981,Escuela de Esgrima Francisco de Ettenhard,-,Spain,-,Madrid,392
879,Escuela de Esgrima Historica de Madrid,-,Spain,-,Madrid,392
896,Sala de Armas Hernando de Acuña,-,Spain,-,Valladolid,392
566,Asociacion Naronesa de Esgrima Antigua,-,Spain,-,Naron,-
1438,Asociación Navarra de Esgrima Histórica Corvus,-,Spain,-,Pamplona,-
778,Asociación Ourensá de Esgrima Antiga,-,Spain,-,Ourense,-
65,Associació Esgrima Antiga Catalunya Central,AEACC,Spain,-,"Manresa, Santpedor, Sant Fruitos de Bages",-
990,Caballeros de Al-basit,-,Spain,-,Albacete,-
567,Club de Artes Marciales Historicas Europeas Drac,-,Spain,-,Mallorca,-
940,Club de Esgrima Gran Capitán,-,Spain,-,Salamanca,-
1440,Club de Esgrima Histórica Audacia,-,Spain,-,Ponferrada,-
1289,Club Esgrima Maresme,-,Spain,Catalunya,Mataró,-
753,Constantia Historical Fencing School,-,Spain,-,Málaga,-
1243,El Arte de la Espada,-,Spain,Andalucia,Algeciras,-
390,Esgrima Antiga Pontevedra,-,Spain,-,Pontevedra,-
1254,Falcata,-,Spain,Galicia,Vigo,-
1439,Gaudiosa Esgrima Histórica,-,Spain,-,Oviedo,-
1290,Hema Esgrima,-,Spain,-,Valencia,-
755,Princesa Kristina de Noruega,-,Spain,-,Burgos,-
367,Sala d'Armes Creu de Sant Jordi,-,Spain,-,Barcelona,-
434,Sala d'Armes Monjuïc,-,Spain,-,Barcelona,-
756,Sala de Armas Don Jaime de Mereló,-,Spain,-,Bilbao,-
991,Sala de Armas El Batallador,-,Spain,-,Zaragoza,-
757,Sala de Armas Fénix,-,Spain,-,Bilbao,-
939,Sala de Armas Fiore dei Líberi,-,Spain,-,Vitoria,-
938,Sala de Armas Hans Talhoffer,-,Spain,-,Bilbao,-
1242,"Sala de armas Jaime III ""El Temerario"" AMEH",-,Spain,Mallorca,Mallorca,-
710,Sala de Armas Salvatore Fabris,-,Spain,-,Bilbao,-
758,Sala de Armas Tercio Norte,-,Spain,-,Santander,-
1419,Sala Duo Bellum Gerió - HEMA Girona - ACEA,Duo Bellum-Gerió,Spain,-,Gerió,-
705,Sala Esgrima Antigua Ignota,-,Spain,-,San Sebastian,-
32,Sala Viguesa de Esgrima Antiga,SVEA,Spain,-,Vigo,-
229,Academia Liechtenaueriana Helsingiensis ry,-,Finland,-,Helsinki,-
2,EHMS,EHMS,Finland,-,Helsinki,-
850,Espoo HEMA,-,Finland,-,Espoo,-
16,Grieswartt,-,Finland,-,Helsinki,-
1296,Jakobstads Historiska Fäktningssällskap,JHFS,Finland,-,Jakobstad,-
30,Joensuun Historiallisen Miekkailun Seura,JoHMS,Finland,-,Mutala,-
9,Jyväskylä Academy of Historical Martial Arts,AHMA,Finland,-,Jyväskylä,-
955,Lakeuden Miekka,-,Finland,-,Seinäjoki,-
849,Lappeenrannan Historiallisen Miekkailun Seura,LHMS,Finland,-,Lappeenranta,-
15,Oulun Miekkailuseura,OMS,Finland,-,Oulu,-
28,Tampere HEMA,-,Finland,-,Tampere,-
22,Turun Historiallisen Miekkailun Seura,THMS,Finland,-,Turku,-
24,Vaasan Miekkailijat,VaMi,Finland,-,Vaasa,-
594,Warusseppäin Kilta,-,Finland,-,Turku,-
668,Académie AMHE,-,France,-,Rochemaure,-
441,AMHE Apicula Carcassona,-,France,-,Carcassonne,-
452,AMHE du Maine,-,France,-,Le Mans et Château du Loir,-
144,AMHE Paris,-,France,-,Paris,-
437,AMHE Saint-Vallier,-,France,-,Saint-Vallier,-
1367,Anima Martialis,-,France,-,Chambéry,-
707,Anim'Oise,-,France,-,Noailles,-
453,Artes belli,-,France,-,Grez-sur-Loing,-
366,AURA Combat Historique,AURA CH,France,-,-,-
456,BELAMHE,-,France,-,-,-
1368,Cercle d'AMHE Néodomien,-,France,-,Neuves-Maisons,-
439,Cercle d'Armes du Dauphiné,-,France,-,La Verpillière,-
708,Cercle d'Arts Martiaux Historiques Européens de Metz,-,France,-,Metz,-
143,Cercle des Escrimeurs Libres Nantais,-,France,-,Nantes,-
1170,Clermont-Ferrand AMHE,-,France,-,Clermont-Ferrand,-
942,Club Sportif et de Loisirs de la Gendarmerie de GAP,CSLG GAP,France,-,Gap,-
454,Compagnie Dagorlad,-,France,-,Pont-de-Buis-lès-Quimerch,-
929,Compagnie d'Armes de Lyon,-,France,-,Lyon,-
1494,Compagnie Excallibur Yvellines,-,France,-,Poissy,-
669,Compagnie Saint Guilhem,-,France,-,Montpellier,-
1155,De Feu et d'Acier,-,France,-,Clermontois,-
138,De Taille et d'Estoc,-,France,-,Dijon,-
451,Ecole Catalane de Combat Médiéval,-,France,-,Latour-de-France,-
221,École Chevaleresque,-,France,-,Montpellier,-
436,Ecole d'Escrime Médiévale L'Âme Impetueuse,-,France,-,Marseille,-
300,Écoliers libres de Strasbourg en Arts Martiaux Historiques Européens,ELSAMHE,France,-,Strasbourg,-
613,Ex Machina,-,France,-,Reims,-
363,Frères d'AMHE,-,France,-,Aix-en-Provence,-
127,Garde des Temps Jadis,GdTJ,France,-,Lille,-
795,L’Épée Blanche,-,France,-,Chamonix-Mont-Blanc,-
910,La Confrérie d'armes de Saint-Michel,-,France,-,Gradignan,-
137,La Confrérie de la Corneille,-,France,-,"Rennes, Saint-Malo, Dinan",-
709,La Juste Solde,-,France,-,Orange,-
1048,La Maisnie du Chevalier Bragon,-,France,-,St-Denis les Bourg,-
1049,La Maisnie du Chevalier Bragon de Bourg en Bresse,-,France,-,Bourg en Bresse,1048
438,La Maisnie du Chevalier Bragon de Saint-Denis-lès-Bourg,-,France,-,Saint-Denis-lès-Bourg,1048
455,La Manticore Paris,-,France,-,Paris,-
611,La Mesnie du Blanc Castel,-,France,-,Blanquefort,-
298,La Salle d'Armes Escrime Ancienne,SAEA - Paris,France,-,Paris,-
1380,Le Cercle des Épées Libres,-,France,-,Avon,-
460,Le Chapitre des Armes,-,France,-,Paris,-
442,Les Guerriers du Lendemain,-,France,-,"Marseille, Istres",-
435,Les Indépendants Réunis,-,France,-,Chambéry,-
610,Les Lames d'Aïssa,-,France,-,Aixe sur Vienne,-
523,Les Lames du Foyer,-,France,-,Poitiers,-
1078,Lyon AMHE,-,France,-,Lyon,-
222,Médiéval Combat,-,France,-,"Villeneuve-Loubet, Nice et Sophia-Antipolis",-
223,Ost du Griffon Noir,-,France,-,Toulouse,-
1369,Passe d'Armes Savoie,-,France,-,Barberaz,-
704,PEAMHE,-,France,-,Grenoble,-
85,Recherche et Expérimentation du Geste Historique et Technique,REGHT,France,-,"Lille, Tourcoing, Dunkerque, Dole",-
141,Unité Sportive Avonnaise Escrime,USAE,France,-,Avon,-
916,WARRIOR BOX,-,France,-,Clermont-Ferrand,-
582,A.G.C. Axion Piraeus Fencing Club,-,Greece,-,Piraeus,-
584,Academy Of Historical European Martial Arts 'Leontes',-,Greece,-,Piraeus,-
227,Academy of Hoplomachia S.C.,-,Greece,-,Athens,-
693,Apocalyptic Knights,-,Greece,-,Thessaloniki,-
685,Argentum Aguila,-,Greece,-,Athens,-
226,Coriolanos HEMA Team,-,Greece,-,Athens,-
587,Fighters of Kranidi,-,Greece,-,Kranidi,-
1526,Hema Team,-,Greece,-,Thessaloniki,-
233,Meandros HEMA Team Piraeus,-,Greece,-,Piraeus,-
583,Pegasus - Athens historical fencing club,-,Greece,-,Athens,-
484,Thessaloniki Fencing Club,-,Greece,-,Thessaloníki,-
1411,Xiphos Academy of HEMA,-,Greece,-,Thessaloniki,-
601,Einherjar HEMA Club,-,Hong Kong,-,Hong Kong,-
294,Ars Gladiatoria,-,Croatia,-,Zagreb,-
947,Cro HES,-,Croatia,-,Varaždin,-
618,Anjou Udvari Lovagkör,-,Hungary,-,Debrecen,-
56,Ars Ensis,-,Hungary,-,"Budapest, Győr, Szeged",-
992,Crosscut Historical Research and Sparring Team,Crosscut HRST,Hungary,-,Budapest,-
701,Ferreus Lupus,-,Hungary,-,Budapest,-
935,Georgikon Szablya Kör,-,Hungary,-,Keszthely,-
291,Kard Rendje ViSE,KRViSE,Hungary,-,"Budapest, Győr",-
449,Pécsi Hosszúkardvívók,-,Hungary,-,Pécs,-
1172,SAGA Középkori Európai Harcművészetek Iskolája,-,Hungary,-,Budapest,-
702,Societas Draconistrarum,-,Hungary,-,Budapest,-
703,Zsongvölgyi Hagyományőrző Haditorna Egylet,-,Hungary,-,Ebes,-
1030,Iron Guts HEMA Club,-,Indonesia,-,Jakarta,-
17,Blademasters Academy,-,Ireland,-,Cork,-
426,Dublin HEMA Club,-,Ireland,-,Dublin,-
424,Exiles Galway,-,Ireland,-,Galway,-
592,Gaillimh Gallóglaigh,-,Ireland,-,Galway,-
489,Goats Head Historical Fencing,-,Ireland,-,Wexford,-
490,Gray School of Arms,-,Ireland,-,Dublin,-
1116,Historical Combat Academy,-,Ireland,-,Dublin,-
1317,Kern School Of Combat,-,Ireland,-,Dublin,-
422,Leitrim Longswords,-,Ireland,-,Leitrim,-
131,SCA Dun in Mara,-,Ireland,-,"Louth, Meath, Dublin, Kildare, Wicklow, Kilkenny, Carlow, Wexford, Waterford",-
443,The 1595 Club Ireland,-,Ireland,-,Galway,-
423,The Irish School of Historical Combat,-,Ireland,-,Galway,-
781,Knights of Fergus,-,Ireland,-,Fergus,423
547,The Wrathful Peasants,-,Ireland,-,Feakle,-
21,West Cork HEMA Club,-,Ireland,-,Cork,-
1101,Reykjavik HEMA Club,-,Iceland,-,Reykjavik,-
1277,Akureyri HEMA Club,-,Iceland,-,Akureyri,1101
911,Væringjar,-,Iceland,-,Reykjavik,-
968,1595 Club Milano,-,Italy,-,Milano,-
365,A.S.D. Regia Turris,-,Italy,-,Padova,-
578,Accademia Fabio Scolari,-,Italy,-,Verona,-
210,Accademia I Duellanti,-,Italy,-,Vercelli,-
389,Accademia Liberi Combattenti,-,Italy,-,Catanzaro,-
205,Accademia Marziale Europea,-,Italy,-,Milano,-
130,Accademia Romana d'Armi,-,Italy,-,Rome,-
1288,Accademia Scherma Alba,-,Italy,-,Alba,-
206,Arma Antica,-,Italy,-,Lucinico,-
1503,ARS Historica,-,Italy,-,Milan,-
400,ASD Butterfly,-,Italy,-,-,-
207,ASD Castellani,-,Italy,-,-,-
1295,ASD Ferreo Core,-,Italy,-,-,-
213,ASD Majistro Re,-,Italy,-,Piacenza,-
666,ASD Pro Patria et Libertate,-,Italy,-,Busto Arsizio,-
230,ASD Scherma Storica Pavia,-,Italy,-,Pavia,-
266,Callis Maior,-,Italy,-,Treviso,-
1105,Club Scherma Apuano,-,Italy,-,Carrara,-
208,Club Scherma Koala,-,Italy,-,Reggio Emilia,-
356,Club Scherma Leonessa,-,Italy,-,Brescia,-
1358,Comense Scherma,-,Italy,-,Como,-
973,Compagnia d’Arme Strategemata,-,Italy,-,Treviso,-
349,Compagnia de Le Due Maestà,-,Italy,-,Reggio Emilia,-
147,Compagnia Della Rosa e Della Spada,-,Italy,-,Napoli,-
1143,Compagnia dello Sparviero,-,Italy,-,Tavagnacco,-
352,Confraternita dei Liberi,-,Italy,-,Padova,-
209,Euganea School of Historical Fencing,-,Italy,-,Veneto,-
1268,Falchi del Secchia,-,Italy,-,Sassuolo,-
972,Fior di Battaglia,-,Italy,-,Borgosesia,-
1235,Guardiani del Cervo,-,Italy,-,Rome,-
931,HEMA Ravenna,-,Italy,-,Ravenna,-
528,Historica Laminis,-,Italy,-,Laminis,-
391,I Cavalieri de li Terre Tarantine,-,Italy,-,Taranto,-
364,Il Contemezzocuore Compagnia D'arme,-,Italy,-,Cortazzone,-
211,Invicti Lupi,-,Italy,-,Romans d'Isonzo,-
399,La Compagnia dell'Orso Nero,-,Italy,-,Turin,-
204,La Sala delle Armi,SdA,Italy,-,Turin,-
398,La Stella dei Viandanti,-,Italy,-,Villadossola,-
1502,Lame della Torre,-,Italy,-,Pavia,-
970,Le Lame del Conte,-,Italy,-,Padova,-
212,Le Spire del Lupo,-,Italy,-,Alba,-
579,Lo scrigno del tempo,-,Italy,-,Milano,-
529,Mos Ferri,-,Italy,-,Rieti,-
215,Musashi Fight Club,-,Italy,-,Turin,-
577,Nova scrimia,-,Italy,-,Verona,-
351,Ordine delle Lame Scaligere,-,Italy,-,Verona,-
1095,Res Martialis,-,Italy,-,Frascati,-
919,Sala d’Arme del Folle,-,Italy,-,Turin,-
203,Sala d'Arme Achille Marozzo,-,Italy,-,-,-
971,Sala d’Arme Achille Marozzo Sforzesca,-,Italy,-,Faenza,203
820,Sala d'Arme Achille Marozzo Bononia,-,Italy,-,Bologna,203
822,Sala d'Arme Achille Marozzo Emilia,-,Italy,-,Reggio Emilia,203
817,Sala d'Arme Achille Marozzo Firenze,-,Italy,-,Firenze,203
818,Sala d'Arme Achille Marozzo Friuli Venezia Giulia,Sala d'Arme Achille Marozzo FVG,Italy,-,Udine,203
1142,Sala d'Arme Achille Marozzo Grosseto,-,Italy,-,Grosetto,203
816,Sala d'Arme Achille Marozzo Lombardia,-,Italy,-,Milan,203
819,Sala d'Arme Achille Marozzo Novara,-,Italy,-,Novara,203
815,Sala d'Arme Achille Marozzo Roma,-,Italy,-,Rome,203
821,Sala d'Arme Achille Marozzo Romagna Malatestiana,-,Italy,-,Cesena,203
814,Sala d'Arme Achille Marozzo Tirrenica,-,Italy,-,Pisa,203
813,Sala d'Arme Achille Marozzo Umbria,-,Italy,-,Perugia,203
823,Sala d'Arme Achille Marozzo Veneto-Trentino Alto Adige,Sala d'Arme Achille Marozzo VTAA,Italy,-,Veneto,203
216,Sala d'Arme Aquila Gladiatrix,-,Italy,-,Urbino,-
797,Sala d'Arme Brutia,-,Italy,-,Cosenza,-
796,Sala d'Arme del Folle,-,Italy,-,Turin,-
35,Sala d'arme dell'Appeso,-,Italy,-,Asola,-
882,Sala d'arme I Bèc del Ruc,-,Italy,-,Brescia,-
883,Sala d'arme Il Carmagnola,-,Italy,-,Carmagnola,-
353,Sala d'Armi Guardia di Croce,-,Italy,-,-,-
1112,Sala d'Armi Guardia di Croce Brescia,-,Italy,-,Brescia,353
1113,Sala d'Armi Guardia di Croce Milano,-,Italy,-,Milano,353
1114,Sala d'Armi Guardia di Croce Rome,-,Italy,-,Rome,353
1287,Sala della Gorgone,-,Italy,-,Genova,-
969,Scherma Storica Dolomiti,-,Italy,-,Belluno,-
665,Scherma Storica Firenze,-,Italy,-,Firenze,-
217,Scherma Storica Genova,-,Italy,-,Genova,-
1316,Scherma Storica Lecce,-,Italy,-,Lecce,-
1467,Schola Sforzesca,-,Italy,-,Milano,-
218,Scrima Torino,-,Italy,-,Turin,-
527,Scuola d'Arme Fiore dei Liberi,-,Italy,-,Rome,-
937,"Scuola di Scherma Storica ""Antonio Quintino""",-,Italy,-,Genova,-
880,Septem Custodie,-,Italy,-,Trieste,-
881,Società d'Arme Major Militia,-,Italy,-,Bologna,-
1269,Major Milita Mutina,-,Italy,-,Mutina,881
219,Societa dei Vai,-,Italy,-,Ravenna,-
1103,Società Italiana Scherma,-,Italy,-,-,-
691,Sodalitas In Opera,-,Italy,-,Como,-
1294,Sparvieri ASD,-,Italy,-,Ravenna,-
1144,Sword Academy,-,Italy,-,Villa Guardia,-
1098,Castle Tintagel,-,Japan,-,Tokyo,-
1489,Guard,-,Kyrgyzstan,-,Bishkek,-
1497,Ferox,-,Kazakhstan,-,Almaty,-
1377,Alber Aus VU,-,Lithuania,-,Vilnius,-
1161,HEMA Kaunas - Renesanso Kalavijo Mokykla,-,Lithuania,-,Kaunas,-
1162,Kalavijo Meistrystes Mokykla,-,Lithuania,-,Vilnius,-
1527,Kardo valdymo mokykla Husaras,-,Lithuania,-,Vilnius,-
1378,Viduramžių pasiuntiniai,-,Lithuania,-,Kaunas,-
1529,Gentlemen club Zobens 1812,-,Latvia,-,Daugavpils,-
272,HEMA Riga,-,Latvia,-,Riga,-
1392,Temaf,-,Latvia,-,-,-
1528,Vēsturiskās modelēšanas klubs Robeža,-,Latvia,-,Daugavpils,-
232,Malta Historical Fencing Association,-,Malta,-,Floriana,-
1315,MERCS Malta,-,Malta,-,Balzan,-
680,Asociación Mexicana de Esgrima Antigua,-,Mexico,-,Mexico City,-
1518,Bärenstark - Escuela de Esgrima Antigua,-,Mexico,Baja California,Ensenada Centro,-
371,Bravos,-,Mexico,-,Avandaro,-
376,Caballeros de Ebano,-,Mexico,-,Guadalajara,-
139,Elite Fencing Club,-,Mexico,-,Mexico City,-
374,Esgrima Histórica Marte,-,Mexico,-,Mexico City,-
82,Gesellschaft aus Löwen,-,Mexico,-,Mexico City,-
122,Krigerskole,-,Mexico,-,Toluca,-
375,Maza de Plata,-,Mexico,-,Mexico City,-
373,North Blazing Sun,-,Mexico,-,Mexicali,-
370,Phoebus Ferratus,-,Mexico,-,Guadalajara,-
255,Ritterschaft HEMA,-,Mexico,-,Tijuana,-
1424,Axolotes Fencing Club,-,Mexico,Baja California,Tijuana,255
372,Wolfskopf Fencing Academy,-,Mexico,-,Leon,-
459,Bataille Krijgskunsten,-,Netherlands,-,Utrecht,-
37,De Academie voor Middeleeuwse Europese Krijgskunsten,AMEK,Netherlands,-,Haarlem,-
38,De Zwaardkring,-,Netherlands,-,"Breda, Den Bosch, Eindhoven, Tilburg",-
571,Historisch Schermgilde Limburg,-,Netherlands,-,Limburg,-
8,Historisch Vrijvechten Nederland,HVN,Netherlands,-,Oegstgeest,-
812,HSSV Ludolph Van Ceulen,-,Netherlands,-,Leiden,-
52,MARS,Mars,Netherlands,-,"Groningen, Zwolle",-
262,Noorderwind,-,Netherlands,-,Utrecht,-
1514,Sint Joris Gilde,-,Netherlands,Dordrecht,-,-
1133,Sint Michielsgilde,-,Netherlands,-,-,-
1134,Sint Michielsgilde Antwerpen,-,Netherlands,-,Antwerpen,1133
1135,Sint Michielsgilde Gouda,-,Netherlands,-,Gouda,1133
334,Sint-Michielsgilde Antwerpen,-,Netherlands,-,Breda,-
1370,Steelbound,-,Netherlands,-,Hague,-
688,The School voor Historische Schermkunsten,-,Netherlands,-,Delft,-
1531,Via Gladiatorem,-,Netherlands,-,Dordrech,-
12,Zwaard & Steen,-,Netherlands,-,"Nieuwegein, Rotterdam",-
3,Bergen HEMA,BHEMA,Norway,-,Bergen,-
20,Fekteklubben Frie Duellister,FKFD,Norway,-,-,-
914,Fekteklubben Frie Duellister Bergen,-,Norway,-,Bergen,20
912,Fekteklubben Frie Duellister Oslo,-,Norway,-,Oslo,20
913,Fekteklubben Frie Duellister Tromsø,-,Norway,-,Tromsø,20
134,Fekterlauget,-,Norway,-,-,-
1324,Halden HEMA,-,Norway,-,Halden,-
135,Hamar Kunst des Fechtens,Hamar KdF,Norway,-,Hamar,-
690,HEMA Kristiansund,-,Norway,-,Kristiansund,-
133,Kongshirden 1260,KH 1260,Norway,-,Bergen,-
136,Rygene,-,Norway,-,Sandnes,-
29,Trondheim HEMA,-,Norway,-,Trondheim,-
771,Auckland Sword and Shield,-,New Zealand,-,Auckland,-
1219,Canterbury Historical Fencing Club,-,New Zealand,-,Christchurch,-
1397,Dunedin Longsword Club,-,New Zealand,-,Dunedin,-
1220,HEMA Nelson,-,New Zealand,-,Nelson,-
1221,IronFolk Combat,-,New Zealand,-,Lower Hutt,-
1458,New Zealand Schools of European Martial Arts,-,New Zealand,-,-,-
504,Waikato Duelists Society,-,New Zealand,-,Hamilton,-
1300,Wellington School of European Martial Arts,-,New Zealand,-,Wellington,-
1398,Western Springs Longsword,-,New Zealand,-,Auckland,-
1311,Whangarei Medieval Combat Club,-,New Zealand,-,Whangarei,-
1092,Esgrima Histórica Ad Bellum,-,Peru,-,Lima,-
1090,Esgrima Histórica Bellatores,-,Peru,-,Lima,-
1091,Sala de Armas de Arequipa,-,Peru,-,Arequipa,-
1448,Forge Pioneer: Historical Fencing,-,Phillipines,-,Mandaluyong,-
1449,True Edge HEMA Guild,-,Phillipines,-,Pasig,-
1385,Aikido Kobayashi Academi,-,Poland,-,Wroclaw,-
114,Akademia Broni,-,Poland,-,Warszawa,-
502,Akademia Szermierzy,-,Poland,-,Warszawa,-
247,ARMA Poland,ARMA PL,Poland,-,-,-
857,ARMA Poland Bielsko-Biala,-,Poland,-,Bielsko-Biala,247
854,ARMA Poland Kraków,-,Poland,-,Kraków,247
858,ARMA Poland Olsztyn,-,Poland,-,Olsztyn,247
855,ARMA Poland Poznan,-,Poland,-,Poznan,247
853,ARMA Poland Warszawa,-,Poland,-,Warszawa,247
856,ARMA Poland Wroclaw,-,Poland,-,Wroclaw,247
1524,Walpurgis,-,Poland,-,Wrocław,247
335,Bractwo Szermiercze,-,Poland,-,Warszawa,-
714,Centrum Dawnych Sztuk Walk,CDSW,Poland,-,Warszawa,-
1356,Czart Klub Szermierki Historycznej,Czart,Poland,-,Lublin,-
248,Fechtschule Gdańsk,-,Poland,-,Gdansk,-
549,Fencing Arts,-,Poland,-,Warszawa,-
572,Freifechter Wrocław,-,Poland,-,Wrocław,-
902,Grupa Fechtunku Historycznego Lublin,-,Poland,-,Lublin,-
1403,Gwiazdy Katowice DESW,-,Poland,-,Katowice,-
1436,HEMA Łódź - Korsarze,-,Poland,-,Łódź,-
1523,Historyczna Akademia Miecza,HAM,Poland,PL,-,-
576,Kraków Kunst des Fechtens,Kraków KdF,Poland,-,Kraków,-
774,Krakowska Szkoła Fechtunku,-,Poland,-,Kraków,-
785,Miles Fencing,-,Poland,-,Warsaw,-
967,MKS Kusy Szczecin,-,Poland,-,Szczecin,-
458,Mordschlag,-,Poland,-,-,-
1326,Mordschlag Wrocław,-,Poland,-,Wrocław,458
1232,Na ubitej ziemi,-,Poland,-,Warsaw,-
1388,Niedzielne Spotkania Sparingowe,-,Poland,-,Warsaw,-
501,Poznańska Grupa Fechtunku Salut,-,Poland,-,Poznań,-
500,Rebel Fencing Szkoła Szermierki Klasycznej,Rebel Fencing,Poland,-,Wroclaw,-
775,Rebellium Gdańsk,-,Poland,-,Gdańsk,-
569,Rzeszowska Grupa Fechtunku,-,Poland,-,Rzeszów,-
146,Silkfencing Team,-,Poland,-,Kraków,-
1168,Szampierz - Młodzieżowy Klub Szermierki Dawnej,-,Poland,-,Warszawa,-
784,Szermierka Kielce,-,Poland,-,Kielce,-
1353,Szkoła Fechtunku Aramis,-,Poland,-,-,-
831,Szkoła Fechtunku Certus,-,Poland,-,Wrocław,-
958,Szkoła Fechtunku Gryf,-,Poland,-,Bielsko Biała,-
904,Szkoła Szermierki Małopolskiej Zgrai Sarmackiej,Małopolska Zgraja Sarmacka,Poland,-,Krakow,-
695,Szpada Szamotuły,-,Poland,-,Szamotuły,-
265,Toruńska Szkoła Fechtunku,-,Poland,-,Toruń,-
1248,UKS Piast Legnica,-,Poland,-,Legnica,-
1354,VALKYRIE/BLADE,-,Poland,-,Wroclaw,-
250,Vectir,-,Poland,-,Mysłowice,-
1283,Wrocławska Szkoła Miecza,-,Poland,-,Wrocław,-
1276,Wszechnica Szermiercza,-,Poland,-,Srodmiescie,-
780,Academia de Armas Porto,-,Portugal,-,Porto,-
872,Academia de Esgrima Histórica,-,Portugal,-,Lisbon,-
779,Academia de Esgrima Histórica - Sala de Armas de Algés,-,Portugal,-,Algés,872
873,Academia de Esgrima Histórica - Sala de Armas de Braço de Prata,-,Portugal,-,Lisbon,872
874,Academia de Esgrima Histórica - Sala de Armas de Loures,-,Portugal,-,Loures,872
825,Academia de Esgrima Histórica - Sala de Armas de Sintra,-,Portugal,-,Sintra,872
711,Esgrima Sadina,-,Portugal,-,Setubal,-
828,Espada Lusitana,-,Portugal,-,Lisbon,-
568,Grupo Esgrima Medieval e Artes de Combate,-,Portugal,-,Porto,-
829,Roteiro da Época,-,Portugal,-,Sintra,-
675,Thomar Honoris,-,Portugal,-,Thomar,-
827,Velha Guarda Marcial,-,Portugal,-,Lisbon,-
1410,7 Swords Historical Fencing School,7 Swords,Romania,-,Bucharest,-
448,Club sportiv Gebeleizis,-,Romania,-,Cluj-Napoca,-
1423,Indomitus Historical Fencing,-,Romania,-,Constanta,-
530,Iron Will HEMA Academy,-,Romania,-,Bucharest,-
667,KdF Klausenburg,-,Romania,-,Cluj-Napoca,-
1422,KDF Kronstadt,-,Romania,-,Brasov,-
447,Societas Milites Getae,-,Romania,-,Bucharest,-
1231,Belgrade fencing academy,-,Serbia,-,Belgrade,-
1229,FEATHER - School of fencing,-,Serbia,-,Belgrade,-
1375,Green Banner,-,Serbia,-,Novi Sad,-
1230,MK Karika,-,Serbia,-,Vršac,-
531,Terca - School of Historical European Swordplay,-,Serbia,-,Belgrade,-
1522,Warlander Jousting - Akademija viteških veština,-,Serbia,-,Belgrade,-
1145,Adamant,-,Russia,-,Angarsk,-
403,Arkenstone,-,Russia,-,-,-
843,Austvegr-Bayard,-,Russia,-,Moscow,-
415,Avalone,-,Russia,-,-,-
833,Avers Fencing,-,Russia,-,Ekaterinburg,-
638,Black Swan,-,Russia,-,-,-
632,Boitcovii Kot,-,Russia,-,-,-
404,Cale,-,Russia,-,-,-
409,Camelot,-,Russia,-,-,-
412,Canto Spada,-,Russia,-,-,-
964,Center of Military Art,-,Russia,-,Omsk,-
408,Challenge,-,Russia,-,-,-
732,Combative Fencing Association,-,Russia,-,-,-
241,Dark Heart,-,Russia,-,-,-
234,Daybreak,-,Russia,-,-,-
953,Desperados,-,Russia,-,-,-
410,Destreza,-,Russia,-,-,-
238,Ecumene,-,Russia,-,-,-
344,Edinorog,-,Russia,-,Voronezh,-
420,Escalibur,-,Russia,-,-,-
842,FC Bayard,-,Russia,-,Moscow,-
417,Fencing Fanatics,-,Russia,-,Moscow,-
236,FFC Paladin,-,Russia,-,Moscow,-
848,Fight and Fit,-,Russia,-,Miass,-
418,Flamberg,-,Russia,-,-,-
421,Forest Brotherhood,-,Russia,-,-,-
407,Free Blades,-,Russia,-,-,-
125,Freifechtergilde,-,Russia,-,Saint Petersburg,-
406,Garda,-,Russia,-,-,-
338,Golden Falcon,-,Russia,-,-,-
345,Golden Forests,-,Russia,-,Moscow,-
237,Golden Griffin,-,Russia,-,-,-
1491,Gran,-,Russia,-,Vladivostok,-
348,Hello Kitty,-,Russia,-,-,-
411,HEMA Academy,-,Russia,-,-,-
840,Hemul,-,Russia,-,Samara,-
416,Imperium Gladium,-,Russia,-,-,-
729,International Academy of Fencing Arts,IAoFA,Russia,-,-,-
733,Irkutsk Swordfighters Guild,-,Russia,-,Irkutsk,-
1008,KIF Efes,-,Russia,-,Krasnodar,-
1138,KKTF Neveros,-,Russia,-,-,-
637,Klinok,-,Russia,-,-,-
730,Kord,-,Russia,-,-,-
876,Koteriya Zheleznaya Molniya,-,Russia,-,Nizhny Novgorod,-
1006,Krasnodar Fencing Guild,-,Russia,-,Krasnodar,-
877,Lauregil,-,Russia,-,Moscow,-
58,Le Renard,-,Russia,-,Moscow,-
837,Lions of St. Mark,-,Russia,-,Krasnoyarsk,-
25,Men With Swords,-,Russia,-,-,-
347,MIPT Historical Simulation Club,-,Russia,-,-,-
240,Mistral,-,Russia,-,Saint Petersburg,-
838,Nochnaya Strazha,-,Russia,-,Ekaterinburg,-
427,NoName,-,Russia,-,-,-
875,Noviye Gortsy,-,Russia,-,Novouralsk,-
1080,Order of Merit,-,Russia,-,Sredneuralsk,-
419,Orodruin,-,Russia,-,-,-
839,Path of Steel,-,Russia,-,Ekaterinburg,-
835,Peresvet,-,Russia,-,Orenburg,-
235,PLK,-,Russia,-,-,-
413,"PPSh, Congo",-,Russia,-,-,-
954,Rarog Squad,-,Russia,-,-,-
1085,Raubritter,-,Russia,-,-,-
341,Renaissance Fencing School,-,Russia,-,Moscow,-
844,RIF,RIF,Russia,-,Moscow,-
961,Rumata Fencing,-,Russia,-,-,-
965,School of Historical Martial Arts,-,Russia,-,-,-
631,Scuola Saint George,-,Russia,-,-,-
845,SFO,SFO,Russia,-,Moscow,-
847,Sormovsky Club of Historical Fencing,SKIF,Russia,-,Nizhny Novgorod,-
640,Steel,-,Russia,-,Voronezh,-
405,Stroganov's Army,-,Russia,-,-,-
1094,Tannenberg,-,Russia,-,Moscow,-
239,The Guard,-,Russia,-,-,-
414,The Last Bastion,-,Russia,-,Tumen,-
340,TORI_I,-,Russia,-,-,-
55,Tramazzone,-,Russia,-,Saint Petersburg,-
59,UKRF,UKRF,Russia,-,-,-
641,Ultima Ratio,-,Russia,-,Saratov,-
402,Ultima Ratio Sibir,-,Russia,-,-,-
836,Unterwalden,-,Russia,-,Krasnodar,-
1084,Uri,-,Russia,-,Arkhangelsk,-
963,Uroboros,-,Russia,-,Novosibirsk,-
336,Uslovno-prikladnoe fechtovanie,-,Russia,-,-,-
1082,VALOR,-,Russia,-,Tumen,-
834,Varga,-,Russia,-,Asbest,-
630,Vier Winden,-,Russia,-,-,-
841,VIK Srednevekovye,-,Russia,-,Tambov,-
1009,Virm,-,Russia,-,Moscow,-
884,Wandering Fox,-,Russia,-,-,-
634,Wargentorn,-,Russia,-,-,-
342,Warning Fencing Team,-,Russia,-,-,-
60,White Company,-,Russia,-,Ivanovo,-
1045,WuHan Historical Fencing Club,-,China,Hubei Province,Wuhan,60
428,White Company 1485,-,Russia,-,-,-
461,Wild Cards Fencing,-,Russia,-,Moscow,-
429,World Class Fencing,-,Russia,-,-,-
1087,Кostowerfechtergilde,-,Russia,-,-,-
908,Eskilstuna HEMA Klubb,-,Sweden,-,Eskilstuna,-
1337,Ferrum Hema,-,Sweden,-,Strängnäs,-
941,Frost HEMA,-,Sweden,-,Luleå,-
63,Gamla Stans Fäktskola,-,Sweden,-,Stockholm,-
19,Gävle HEMA,-,Sweden,-,Gävle,-
1,Gothenburg Historical Fencing School,GHFS,Sweden,-,Gothenburg,-
915,Gripen HEMA,-,Sweden,-,Strängnäs,-
734,Halmstad HEMA,-,Sweden,-,Halmstad,-
1291,Järvsö Historiska Fäktförening,-,Sweden,-,Järvsö,-
1420,Kalix Historiska Fäktsällskap,-,Sweden,-,Kalix,-
11,Kungshamns Historiska Fäktskola,KuHFS,Sweden,-,Kungshamn,-
68,Ljungamarkens HEMA,-,Sweden,-,Ljungaverk,-
14,Malmö Historiska Fäktskola,MHFS,Sweden,-,Malmö,-
302,Medeltida Stridsteknik Linköping IF,MSL IF,Sweden,-,Linköping,-
126,ÖKSF HEMA,-,Sweden,-,Örnsköldsvik,-
5,Örebro HEMA,ÖHEMA,Sweden,-,Örebro,-
246,Örnsköldsviks Kampsportsförening,ÖKSF,Sweden,-,Örnsköldsvik,-
909,Sällskapet Lunds Kontrafäktare,-,Sweden,-,Lund,-
379,Särimner HEMA,-,Sweden,-,Höganäs/Helsingborg,-
66,Sjuhärads Fäktskola,-,Sweden,-,Borås,-
41,Stockholm HEMA,-,Sweden,-,Stockholm,-
26,Stockholms Stigmän,-,Sweden,-,Stockholm,-
64,Stockholmspolisens Idrottsförening Fäktning,SPIFF,Sweden,-,Stockholm,-
1442,Tjörns HEMA-Sällskap,-,Sweden,-,Skärhamn,-
534,Umeås Historiska Fäktskola,-,Sweden,-,Umeå,-
4,Uppsala Historiska Fäktskola,-,Sweden,-,Uppsala,-
67,Växjö HEMA-sällskap,-,Sweden,-,Växjö,-
1384,West Coast HEMA,-,Sweden,-,Göteborg,-
1127,Wisby Historiska Fäktskola,-,Sweden,-,Visby,-
1029,Bastion HEMA Singapore,-,Singapore,-,Marymount,-
975,ORB Fencing,-,Singapore,-,Thomson,-
267,Academia Artis Dimicatoriae,AAD,Slovenia,-,Ljubljana,-
948,Canne Klub Kamnik,-,Slovenia,-,Kamnik,-
650,Banskobystrický šermiarsky spolok,BBŠS,Slovakia,-,Banská Bystrica,-
264,Bratislavský šermiarsky spolok,BŠS,Slovakia,-,Bratislava,-
377,Cech Terra de Selinan,CTDS,Slovakia,-,Žilina,-
293,EtCetera,-,Slovakia,-,Bratislava,-
468,Falka,-,Slovakia,-,Komárno,-
1124,Goliath - šermiarsky cech mesta Poprad,Goliath,Slovakia,-,Poprad,-
1123,Kenshin-tachi,-,Slovakia,-,Častá,-
1376,Klub Šermu Rys,-,Slovakia,-,Banska Bystrica,-
380,Klub šermu Trenčín,-,Slovakia,-,Trenčín,-
651,Košický šermiarský cech,KŠC,Slovakia,-,Košice,-
378,Michalovský spolok šermiarsky,-,Slovakia,-,Michalovce,-
1126,Milites Castri,-,Slovakia,-,Michalovce,-
287,Pugiles,-,Slovakia,-,Trnava,-
662,SHŠ Banderium,-,Slovakia,-,Bratislava,-
289,Triglav,-,Slovakia,-,Bratislava,-
260,Trnavský Šermiarsky Cech,TSC,Slovakia,-,Trnava,-
893,Vir Fortis,-,Slovakia,-,Zvolen,-
292,Žoldnieri,-,Slovakia,-,Bratislava,-
832,Avrasya Tarihi Savaş Sanatlari Derneği,-,Turkey,-,Ankara,-
1164,INDES Akademi,-,Turkey,-,İstanbul,-
544,İstanbul Tarihi Savaş Sanatları Birliği,-,Turkey,-,Istanbul,-
228,Turkey Historical Fencing Association,-,Turkey,-,Izmir,-
606,Fu Jen University European Medieval Swordsmanship,-,Taiwan,-,New Taipei City,-
600,Lionheart Historical European Swordsmanship Club,-,Taiwan,-,Taipei City,-
605,Sakura Sanguineous,-,Taiwan,-,New Taipei City,-
1441,The Chinese Academy of Chang Chuan and Hong Chuan,-,Taiwan,-,Taipei City,-
1028,Truth Exploring,-,Taiwan,-,Taipei City,-
253,Vor & Nach Society of Historical European Martial Arts,-,Taiwan,-,New Taipei City,-
1183,Atira Ruthenia,-,Ukraine,-,Kyiv,-
1178,Black Company,-,Ukraine,-,Dnipro,-
1386,Bushido,-,Ukraine,-,Kyiv,-
1228,CSO Cossack's Knight's Club,-,Ukraine,-,Fastiv,-
1179,Fencing Phoenix,-,Ukraine,-,Kyiv,-
1022,Guild of Duel Fencing,-,Ukraine,-,Kyiv,-
1173,Kyiv Fencing Club,-,Ukraine,-,Kyiv,-
1180,Lviv HEMA Club,-,Ukraine,-,Lviv,-
1233,Oberkriegschneck,-,Ukraine,-,-,-
1227,Omni Kombat,-,Ukraine,-,Kyiv,-
1181,Ritter,-,Ukraine,-,Kharkiv,-
1177,Sharukhan,-,Ukraine,-,Kharkiv,-
1244,Svyatogor,-,Ukraine,-,Kyiv,-
1182,Troegoriye,-,Ukraine,-,Poltava,-
1021,Vostok,-,Ukraine,-,Kharkiv,-
1184,White Wolf,-,Ukraine,-,Ukrainka,-
520,Aberdeen Swordsmanship Group,-,United Kingdom,Scotland,Aberdeen,-
53,Academy of Historical Arts,The AHA,United Kingdom,-,-,-
870,Liverpool HEMA,-,United Kingdom,-,Liverpool,53
871,The Vanguard Centre,-,United Kingdom,Scotland,Glasgow,53
39,Academy of Historical Fencing,AHF,United Kingdom,-,Newport,-
722,Academy of Steel,-,United Kingdom,Wales,Cardiff,-
1211,Aisle O'var Academy of Arms,-,United Kingdom,-,-,-
1212,Aisle O'var Academy of Arms - Sandy,-,United Kingdom,-,Letchworth,1211
1213,Aisle O'var Academy of Arms - Sandy,-,United Kingdom,-,Sandy,1211
487,Aisle O'var Backswording Clubbe,-,United Kingdom,-,Arlesey,-
518,Alpha Weapons Academy,-,United Kingdom,-,Maidstone,-
1293,Basingstoke HEMA,-,United Kingdom,-,Basingstoke,-
974,Bath Historical Martial Arts,-,United Kingdom,-,Bath,-
715,Birmingham HEMA Club,-,United Kingdom,-,Birmingham,-
999,Black Boar Swordsmanship School,-,United Kingdom,-,"Fife, Edinburgh, Cheshire",-
474,Cambridge HEMA,-,United Kingdom,-,Cambridge,-
522,Clashing Steel Longsword Club,-,United Kingdom,-,Milton Keynes,-
1214,Cornish Sword - Kledha Kernewek,-,United Kingdom,-,Camborne,-
245,Cowal Historical Fencing Club,-,United Kingdom,-,-,-
244,Dawn Duellists Society,DDS,United Kingdom,Scotland,Edinburgh,-
525,Dragon's Tayle,-,United Kingdom,-,Darlington,-
1350,Durham Medieval Combat Academy,-,United Kingdom,-,Durham,-
987,Edel Fencing Academy,-,United Kingdom,Wales,Cardiff,-
319,Edinburgh HEMACS Society,-,United Kingdom,Scotland,Edinburgh,-
1394,Exmoor HEMA,-,United Kingdom,-,Dunster,-
728,Glasgow HEMA,-,United Kingdom,Scotland,Glasgow,-
824,Glasgow Historical Fencing Society,-,United Kingdom,Scotland,Glasgow,-
1285,Glasgow Sword Breakers,-,United Kingdom,-,Glasgow,-
243,Glasgow University Historical Swordsmanship,-,United Kingdom,Scotland,Glasgow,-
1194,Goose HEMA,-,United Kingdom,-,Leicester,-
321,Highland Broadsword Fencing Angus,-,United Kingdom,Scotland,Carnoustie,-
480,Hotspur School of Defence,-,United Kingdom,-,Newcastle,-
526,KdF Bournemouth,-,United Kingdom,-,Bournemouth,-
478,KdF Leeds,-,United Kingdom,-,Leeds,-
492,KdF Manchester,-,United Kingdom,-,Manchester,-
472,KdF Nottingham,-,United Kingdom,-,Nottingham,-
473,KdF Tonbridge,-,United Kingdom,-,Tonbridge,-
517,Linacre School of Defence,-,United Kingdom,-,Oxford,-
281,London Historical Fencing Club,-,United Kingdom,-,London,-
491,London Longsword Academy,-,United Kingdom,-,London,-
1280,Manchester HEMA,Manchester Historical Fencing,United Kingdom,-,Manchester,-
425,Medieval Combat Group,-,United Kingdom,Northern Ireland,Belfast,-
712,Mercian Medieval Fight Club,MMFC,United Kingdom,-,Walsall,-
716,New Cross Historical Fencing,-,United Kingdom,-,London,-
477,North Lakes Historical Fencing Society,-,United Kingdom,-,"Cockermouth, Appleby",-
1193,Order of the Blade,-,United Kingdom,-,Loughborough,-
1475,Order of the Blade - Exeter,-,United Kingdom,-,Exeter,1193
524,Oxford Sword and Staff,-,United Kingdom,-,Oxford,-
748,Plymouth Swordsman Society,-,United Kingdom,-,Plymouth,-
516,Portsmouth British Martial Arts Club,-,United Kingdom,-,Portsmouth,-
471,Red Dragon Longsword Academy,-,United Kingdom,Wales,Llandudno,-
575,Renaissance Martial Arts Society,-,United Kingdom,-,Dundee,-
519,Riddle of Steel,-,United Kingdom,-,Lewes,-
1284,Saorsa: Scottish Swordsmanship,-,United Kingdom,-,Rutherglen,-
249,Schola Gladiatoria,-,United Kingdom,-,London & Surrey,-
532,Sheffield Academy of Western Martial Arts,-,United Kingdom,-,Sheffield,-
1215,Silver Hand Fencing,-,United Kingdom,-,Newnham,-
950,Silver School of Arms,-,United Kingdom,-,Bolton,-
1076,Smart HEMA Clubs,-,United Kingdom,-,"Wiltshire, Berkshire",-
521,Southampton Historical Fencing,-,United Kingdom,-,Southampton,-
747,Braintree Historical Fencing,-,United Kingdom,-,Braintree,521
323,SPADA,-,United Kingdom,-,-,-
1153,Stratford Swords,-,United Kingdom,-,Stratford-upon-Avon,-
322,Sussex Sword Academy,-,United Kingdom,-,Brighton,-
466,Taunton Longswords,-,United Kingdom,-,Taunton,-
998,Tempus Fugitives,-,United Kingdom,-,London,-
242,The 1595 Club,-,United Kingdom,-,London,-
482,The English Martial Arts Academy,-,United Kingdom,-,Guildford,-
949,The Exiles,-,United Kingdom,-,London,-
1033,The Exiles New England,-,United States,Connecticut,Milford,949
31,The Institute for Historical Arts,IHA,United Kingdom,Scotland,Dundee,-
261,The Iron Door Collective,-,United Kingdom,-,Exeter,-
1434,Exeter Sparring Group,-,United Kingdom,-,Exeter,261
581,The Pierced Heart,-,United Kingdom,-,Brighton,-
62,The Renaissance Sword Club,-,United Kingdom,-,"London, Surrey, Berkshire",-
61,The School of the Sword,-,United Kingdom,-,"Reading, Godalming",-
1003,The Society for the Study of Swordsmanship,-,United Kingdom,-,"Sheffield, Leeds, Durham, Whitby.",-
1004,The Society for the Study of Swordsmanship: Durham,-,United Kingdom,-,Durham,1003
713,Thetford Sword Club,-,United Kingdom,-,Thetford,-
475,Tree of Shields,-,United Kingdom,-,Keighley,-
1281,University of Chester HEMA,-,United Kingdom,-,Chester,-
273,Virtus Sword School,-,United Kingdom,Wales,Cardiff,-
6,Waterloo Sparring Group,WSG,United Kingdom,-,London,-
467,Wessex School of Arms,-,United Kingdom,-,"Bath, Swindon",-
1318,Wivenhoe HEMA,-,United Kingdom,-,Wivenhoe,-
476,Wolfshead Western Martial Arts,-,United Kingdom,-,Lincoln,-
1446,13th Scholars,-,United States,North Carolina,Charlotte,-
154,Abingdon Historical Combat,-,United States,Virginia,Abingdon,-
180,Academy of Arms,-,United States,California,Los Angeles,-
546,Academy of European Arms,-,United States,Oregon,Milwaukie,-
900,Academy of European Fighting Arts,-,United States,California,Burbank,-
1070,"Academy of Western Martial Arts, Austin",-,United States,Texas,Austin,-
123,Accademia del Leone,-,United States,Texas,Frisco,-
1328,Aegis Historical Combat Training,-,United States,Texas|,Leander,-
257,Albuquerque Sword Labs,-,United States,New Mexico,Albuquerque,-
1014,All For One Fencing,-,United States,Texas,Houston,-
165,Ann Arbor Sword Club,-,United States,Michigan,Ann Arbor,-
1140,Antelope Valley Kunst des Fechtens,-,United States,California,Palmdale,-
1302,Appalachian Highland Historical Fencing,-,United States,Tennessee,Johnson City,-
1362,Appalachian Sword Club,-,United States,Tennessee,Chattanooga,-
1256,Arena Weapon Arts,-,United States,Texas,Austin,-
777,Ars Gladii - School of Chivalric Arts,-,United States,Michigan,Detroit,-
1334,Association for Renaissance Martial Arts,-,United States,-,-,-
1335,Association for Renaissance Martial Arts - Las Vegas,-,United States,Nevada,Las Vegas,1334
140,Athena School of Arms,-,United States,Massachusetts,Cambridge,-
1303,Athens School of Arms,-,United States,Georgia,Athens,-
36,Atlanta Historical Fencing Academy,-,United States,Georgia,Atlanta,-
118,ATX Longsword,-,United States,-,-,-
283,Austin Historical Weapons Guild,-,United States,Texas,Austin,-
256,Baerswords School of Western Martial Arts,-,United States,Missouri,Kansas City,-
1484,Band of Iron Lions,-,United States,Iowa,Des Moines,-
1200,Battlefield KdF,-,United States,Virginia,Vanassas,-
182,Bay Area Freifechter,-,United States,-,-,-
486,Bellows Freifechter,-,United States,Vermont,Fairfax,-
306,Bent Blades,-,United States,Wisconsin,Madison,-
1237,Black Bear Historical Fencing,-,United States,West Virginia,Morgantown,-
1498,Black Cat Historical Fencing,-,United States,Rhode Island,Warren,-
493,Black Falcon School of Arms,-,United States,Colorado,Colorado Springs,-
497,Black Flag HEMA,-,United States,Florida,Tampa,-
1486,Black Tiger Martial Arts Academy,-,United States,Illinois,Libertyville,-
358,Black Tigers,-,United States,-,-,-
385,Black Wolf Historic Martial Arts,-,United States,Pennsylvania,Danville,-
258,Blackfriar's School of Fence,-,United States,California,San Luis Obispo,-
73,Blacksburg Blades,-,United States,-,-,-
495,Blade Society,-,United States,-,-,-
761,Blossfechten Academy: Joplin HEMA School,-,United States,Missouri,Joplin,-
317,Bold City Longsword,-,United States,Florida,Jacksonville,-
1383,Boston Academie d'Armes,-,United States,Massachusetts,Medford,-
193,Boston Armizare,-,United States,Massachusetts,Boston,-
76,Brandr Combat Academy,-,United States,Texas,San Antonio,-
1224,Broken Arm Academy of Swordsmanship,-,United States,Kansas,Manhattan,-
70,Broken Plow Western Martial Arts,Broken Plow WMA,United States,Pennsylvania,Pittsburgh,-
925,Bucks Historical Longsword,-,United States,Pennsylvania,-,-
1192,Burning Sun,-,United States,New Mexico,Silver City,-
1366,Burning Sun Historical Swordsmanship,-,United States,-,-,-
1258,Caledonian Broadsword Academy of New Orleans,-,United States,Louisiana,New Orleans,-
54,Capital Kunst des Fechtens,Capital KdF,United States,Virginia,Alexandria,-
1307,Carolina Historical Fencing Association,-,United States,South Carolina,Columbia,-
737,Center for Blade Arts,-,United States,Minnesota,Minneapolis,-
966,Centerline Sword School,-,United States,Michigan,Jenison,-
1429,Central Iowa Historic Fencing Guild,CIHF,United States,Iowa,Ankeny,-
198,Chicago Swordplay Guild,-,United States,Illinois,Chicago,-
897,Chico Historical Sword Fighting Academy,-,United States,California,Chico,-
1139,Chivalry Today,-,United States,California,Santee,-
282,Citadel Combat Arena,-,United States,Oregon,Portland,-
191,Clemson Longsword,-,United States,South Carolina,Clemson,-
1304,Coastal Combat HEMA,-,United States,North Carolina,Jacksonville,-
889,Columbus Saber Academy,-,United States,Ohio,Columbus,-
907,Corsair Fencing Club,-,United States,Pennsylvania,Pittsburgh,-
1517,Crimson Steel HEMA,-,United States,Florida,Valrico,-
1252,Crossroads Swords,-,United States,Florida,Orlando,-
642,Cymbrogi School of Western Martial Arts,-,United States,Oklahoma,Moore,-
1067,Dallas Renaissance Sword Guild,-,United States,Texas,Dallas,-
772,Dallas School of Historical Fencing,-,United States,Texas,Dallas,-
175,Davenriche European Martial Artes School,-,United States,California,Santa Clara,-
186,Decatur School of Arms,-,United States,Georgia,Decatur,-
499,Denver Historical Fencing Academy,DHFA,United States,Colorado,Denver,-
899,Diamond Rose Academie D'Armes,-,United States,California,Nevada City,-
115,Drei Wunder Wma,-,United States,Oregon,Portland,-
1225,East Texas Historical Fencing,-,United States,Texas,Whitehouse,-
1329,Eastside Fechtverein HEMA,-,United States,Washington,Issaquah,-
1187,Einhorn Los Angeles Historical Fencing Arts,Einhorn LA Historical Fencing Arts,United States,California,Glendale,-
119,Emerald Coast Sword Guild,-,United States,Florida,Pensacola,-
706,En Garde Fencing,-,United States,California,Santa Rosa,-
997,Esgrima Antigua e Histórica de Puerto Rico y del Caribe,-,United States,Missouri,Springfield,-
79,European Martial Arts of St. Louis,EMA St. Louis,United States,-,-,-
1306,Everblade Academy,-,United States,Tennessee,Kingsport,-
1251,F3 Sword Academy,-,United States,California,Berkeley,-
74,Fenris Kunst Des Fechtens,-,United States,-,-,-
1435,Fianna Historical Fencing,-,United States,Missouri,Jefferson City,-
609,Fighters Guild Historical Combat,-,United States,California,Orange County,-
1336,Fireblood Combat,-,United States,Nevada,Las Vegas,-
1066,Five Circles Martial Arts,-,United States,Oklahoma,Tulsa,-
760,Five Rings Fencing,-,United States,Kansas,Kansas City,-
80,Forte Swordplay,-,United States,Massachusetts,Haverhill,-
1297,Freefencers' Union,-,United States,Colorado,Cascade,-
430,Fremont Freifechter,-,United States,California,Fremont,-
184,Fresno Freifechter,-,United States,California,Fresno,-
976,Frozen Clover Swordplay,-,United States,Vermont,Cambridge,-
1299,Gainesville HEMA,-,United States,Florida,Gainesville,-
700,Gem City Duelists Society,-,United States,Ohio,Dayton,-
1201,Gentleman's Dueling Society,-,United States,Colorado,Denver,-
1501,Goliath Historical Fencing Academy,-,United States,Wisconsin,Racine,-
384,Grand Valley State University HEMA Club,-,United States,Michigan,Allendale,-
311,Great Plains Steel Historical Fencing,-,United States,North Dakota,Bismarck,-
171,Grit-City Historical European Martial Arts,Grit-City HEMA,United States,Washington,Tacoma,-
83,Grünberg Freifechter,-,United States,Vermont,Burlington,-
1031,Guild of Knightly Arts,-,United States,Missouri,Jefferson City,-
1032,Guild of the Silent Sword,-,United States,Texas,Austin,-
751,Halfmoon Hema,-,United States,New York,Clifton Park,-
1024,Harrisburg Longsword,-,United States,Pennsylvania,Harrisburg,-
725,Heartland HEMA Historical Fencing Club,-,United States,Missouri,Kansas City,-
735,HEMA Lexington,-,United States,Kentucky,Lexington,-
545,Herzstich Dueling Guild,-,United States,Washington,Tacoma,-
1253,Hilt and Helm Pittsburgh Fencing Club,-,United States,Pennsylvania,Pittsburgh,-
982,Historical Fencing of York,-,United States,Pennsylvania,Shrewsbury,-
124,Historical Fighting Academy,-,United States,-,-,-
1371,Historical Swordfighting Guild of UT Dallas,-,United States,Texas,Dallas,-
1405,HIVE Fencing Academy,-,United States,New York,Albany,-
397,House of Blades,Central Iowa Historical Fencing Guild,United States,Iowa,Ankeny,-
898,Indes Ferox Gladio,-,United States,Oregon,Portland,-
1129,Indianapolis Fencing Club,-,United States,Indiana,Indianapolis,-
1365,Inland Northwest Longsword Academy,-,United States,Washington,Spokane,-
45,Iron Crown Kunst des Fechtens,Iron Crown KdF,United States,Washington,Spokane,-
176,Iron Gate Swordfighting,-,United States,California,Fresno,-
1147,Iron Key Longsword Club,-,United States,Colorado,Colorado Springs,-
431,Iron Triangle Eskrima,-,United States,California,Oakland,-
1088,Ironwood Historic Swordsmanship,-,United States,Arizona,Tucson,-
1322,Italian Renaissance Swordsmanship Academy,-,United States,California,San Jose,-
96,Kansas City HEMA,-,United States,Kansas,Overland Park,-
599,Keystone Academy of Dueling and Swordsmanship,-,United States,Pennsylvania,Harrisburg,-
1331,Kingfisher Historical Fencing Club,-,United States,-,-,-
120,Knight's Blade HEMA Association,Knight's Blade,United States,-,-,-
187,Knoxville Academy of the Blade,-,United States,Tennessee,Knoxville,-
922,Kraken Swords,-,United States,Florida,Orlando,-
89,Krieg School,-,United States,Colorado,Denver,-
90,Kron Martial Arts,Kron,United States,California,"Los Angeles, Fullerton",-
906,Lafayette Historical Fencing Guild,-,United States,Indiana,Lafayette,-
894,Lake Charles HEMA Academy,-,United States,Louisana,Lake Charles,-
1247,Lake Erie Historical Fencing,-,United States,Ohio,-,-
1278,Lake Forest Sword Academy,-,United States,Illinois,Lake Forest,-
663,Lansing Longsword Guild,-,United States,Michigan,Lansing,-
470,L'Arte D'Armizare Fiore Study Group,-,United States,-,-,-
167,L'Arte Della Bellica,-,United States,-,-,-
1034,L'Arte NYC Historical Fencing,-,United States,New York,New York,167
1131,L'Arte NYC Lehigh Valley,-,United States,Pennsylvania,Bethlehem,167
464,Laurel City Historical Fencing,-,United States,Connecticut,Winsted,-
745,Liberty Sword Club,-,United States,New Jersey,Jersey City,-
92,Long Island Historical Fencing Society,LIHFS,United States,New York,Long Island,-
93,Lonin League,-,United States,Washington,Seattle,-
952,Los Angeles Historical Martial Arts Society,-,United States,California,Los Angeles,-
1332,Lost Arts Historic Fencing,-,United States,-,-,-
314,Loyal Order of the Sword,-,United States,Georgia,Augusta,-
1292,Martinez Academy of Arms,-,United States,New York,New York City,-
71,Maryland Kunst des Fechtens,Maryland KdF,United States,Maryland,Columbia,-
155,Massachusetts Historical Swordsmanship,-,United States,Massachusetts,"Worcester, Easthampton",-
1525,Masterless Fencing,-,United States,Oregon,Eugene,-
77,Medieval European Martial Arts Guild,MEMAG,United States,PA / NJ / VA,-,-
1515,Crossing Fight School,-,United States,New Jersey,Southhampton,77
1361,Medieval Martial Arts Academy,-,United States,Missouri,Springfield,-
996,Medieval Military Arts Academy,-,United States,Missouri,Springfield,-
620,Men At Arms Martial Arts,-,United States,Pennsylvania,New Kingstown,-
1167,Metropolitan Historical Fencing Academy,-,United States,Virginia,-,-
1451,Meyer's Combat Academy,-,United States,Florida,Cape Coral,-
159,Michigan Historical Art of Arms Fellowship,-,United States,Michigan,Battle Creek,-
469,Michigan Medieval Combat Association,-,United States,Michigan,Livonia,-
94,Mid-Atlantic Society for Historic Swordsmanship,MASHS,United States,Maryland,Annapolis,-
169,Mid-South Fencers Club,-,United States,North Carolina,Durham,-
766,Minneapolis Amateur Swordfighting Association,-,United States,Minnesota,Minneapolis,-
307,Minneapolis HEMA Study Group,-,United States,-,-,-
98,Minnesota Sword Guild,-,United States,-,-,-
1189,Mobile Historical Fencing Club,-,United States,Alabama,Mobile,-
1077,Montgomery County Historical Fencing,-,United States,Maryland,Gaithersburg,-
1437,Moose Historical Fencing,-,United States,Maine,Portland,-
608,Mordhau Historical Combat,-,United States,Arizona,Mesa,-
1402,Mountain Run Kunst des Fechtens,-,United States,Virginia,Culpeper,-
723,Musketeer Fencing Club,-,United States,Nebraska,Omaha,-
1190,Nachreisen Historical Fencing,-,United States,Louisiana,Baton Rouge,-
1312,Napa-Solano Historical Fencing Guild,-,United States,California,American Canyon,-
808,Nashville School of Historical Fencing,-,United States,Tennessee,Nashville,-
724,Nebraska Swordfighters Guild,-,United States,Nebraska,Lincoln,-
886,New Braunfels Historical Fencing Club,-,United States,Texas,New Braunfels,-
75,New Hampshire Kunst des Fechtens,New Hampshire KdF,United States,New Hampshire,-,-
1461,New Haven Historical Fencing,-,United States,Connecticut,New Haven,-
100,New Jersey Historical Fencing Association,NJHFA,United States,New Jersey,"Fair Lawn, Franklin",-
1409,New Jersey Kloppfechters,-,United States,New Jersey,Moorestown,-
43,New York Historical Fencing Association,NYHFA,United States,New York,New York City,-
1001,Hudson Valley Fencing,CSLG GAP,United States,Connecticut,New Fairfield,43
769,Nickel City Longsword Academy,-,United States,New York,Orchard Park,-
164,Noble Science Academy,-,United States,Nevada,Sparks,-
1444,Noble Science Academy - New Hampshire,-,United States,New Hampshire,Lebanon,164
359,Northwest Armizare,-,United States,Washington,Skamania,-
158,Northwest Fencing Academy,-,United States,Oregon,Eugene,-
1415,Norwich Society of Historical Swordsmanship and Fencing,NSHS,United States,Vermont,Northfield,-
360,Ochs America,-,United States,Florida,Orlando,-
597,Old Line Historical Swordsmanship,-,United States,Maryland,Abingdon,-
305,Omaha Kunst des Fechtens,-,United States,Nebraska,Omaha,-
878,Omaha-Metro Armed Combat Academy,-,United States,Nebraska,La Vista,-
161,Order of the Marshal,-,United States,-,-,-
1245,Order of the Talon,-,United States,Virginia,Hampton,-
116,Ordo Procinctus,-,United States,Louisiana,Baton Rouge,-
1305,Palm Beach Sword School,-,United States,Florida,West Palm Beach,-
312,Pennsylvania Klopffechters,-,United States,Pennsylvania,Bloomsburg,-
1462,Per La Vita Academy of Western Martial Arts,-,United States,Connecticut,Milford,-
387,Philadelphia Common Fencers Guild,-,United States,Pennsylvania,Philadelphia,-
151,Phoenix Society of Historical Swordsmanship,-,United States,Arizona,Phoenix,-
535,Pioneer Valley Fencing Academy,-,United States,Massachusetts,Easthampton,-
1314,Pittsburgh Fighters Guild,-,United States,Pennsylvania,Homestead,-
654,Queen City Sword Guild,-,United States,Ohio,Cincinnati,-
1413,Ram's Head Fencing,-,United States,Minnesota,"Minneapolis, Saint Paul",-
1428,Red River Fencing,-,United States,Wisconsin,Hudson,-
103,Redlands Fencing Center,-,United States,Oklahoma,Oklahoma City,-
483,Resurgam HEMA,-,United States,Maine,Portland,-
598,Rhode Island Fencing Academy & Club,RIFAC,United States,Rhode Island,Providence,-
166,Richmond Kunst Des Fechtens,Richmond KdF,United States,Virginia,Henrico,-
318,Ritterkunst Fechtschule,-,United States,Georgia,Cumming,-
763,River Falls Meyer Freifechter Guild,-,United States,Wisconsin,River Falls,-
1412,River Heron HEMA,-,United States,Illinois,Wilmington,-
807,Rocket City HEMA,-,United States,Alabama,Huntsville,-
396,Rocky Mountain Swordplay Guild,-,United States,Colorado,Denver,-
388,Rogue Fencing,-,United States,New York,New York,-
1408,Round Table Historical Fencing,-,United States,Maryland,Fredrick,-
383,Royal Arts Fencing Academy,-,United States,Ohio,Columbus,-
382,Sacramento Historical Fencing Academy,-,United States,California,Sacramento,-
181,Sacramento Sword School,-,United States,California,Sacramento,-
177,Sacto HEMA,-,United States,-,-,-
1310,Sala Della Spada,-,United States,Pennsylvania,Carlisle,-
1373,Salida Historical Fencing Academy,-,United States,Colorado,Salida,-
741,Salle Saint-Georges,-,United States,Washington,Seattle,-
740,San Diego Renaissance Sword Arts,-,United States,California,San Diego,-
1430,San Diego Sword School,-,United States,California,San Diego,-
1250,San Diego Swordfighters,-,United States,California,San Diego,-
1146,San Luis Valley Swordguild,-,United States,Colorado,Colorado Springs,-
1313,Santa Cruz Historical Combat Club,-,United States,California,Felton,-
178,Schola San Marco,-,United States,California,Solana Beach,-
607,Scholars of Alcala,-,United States,California,San Diego,-
188,School of Fencing,-,United States,-,-,-
617,Scots-Irish Warrior Arts,-,United States,Tennessee,Johnson City,-
1416,Scuffletown Federfechters,-,United States,Virginia,Richmond,-
274,Second Intent Fencing,-,United States,Missouri,Troy,-
106,Selohaar Fechtschule,-,United States,Connecticut,Oxford,-
107,Seven Swords Academy,-,United States,Washington,Tacoma,-
923,Shippensburg University Fencing Club,-,United States,Pennsylvania,Shippensburg,-
1226,SoCal Swords,-,United States,California,Santa Ana,-
1246,Society of Historical Fencing,-,United States,Florida,Boca Raton,-
433,South Coast Swords,-,United States,California,Santa Ana,-
1218,Springfield Historical Fencing Club,-,United States,Illinois,Springfield,-
782,Springfield Historical Fencing Guild,-,United States,Missouri,Springfield,-
1064,St Louis School of Arms,-,United States,Missouri,St. Louis,-
1279,St. Louis Broadsword Academy,-,United States,Missouri,St. Louis,-
1485,St. Paul Freifechter,-,United States,Minnesota,St Pau,-
479,Steel City Historical Fencing,-,United States,Pennsylvania,Pittsburgh,-
1298,Steel Ring Academy,-,United States,Florida,Bradenton,-
1236,Steelhead Western Martial Arts,-,United States,Pennsylvania,Erie,-
738,Stirling Mercenaries,-,United States,California,-,-
888,Storm of Steel Fencing,-,United States,Texas,Harlingen,-
921,Summit Historical Fencing,-,United States,Pennsylvania,Scranton,-
163,Sword Carolina,-,United States,South Carolina,Fountain Inn,-
616,Sword Circle-LLC,-,United States,Garner,North Carolina,-
195,Sword in the Scroll,-,United States,Connecticut,Willimantic,-
1414,Sword Inquisition,-,United States,Massachusetts,Boston,-
108,Sword to Sword,-,United States,Texas,Houston,-
173,Swordguild Portland,-,United States,Oregon,Portland,-
160,Swords of Chivalry,-,United States,Massachusetts,Acton,-
1282,Swordsmanship Museum and Academy,-,United States,Michigan,Comstock Park,-
109,Swordwind Historical Swordsmanship,-,United States,North Carolina,Charlotte,-
105,"Système d’Armes, New Orleans",SDA NOLA,United States,Louisiana,New Orleans,-
1217,Tampa Bay Military Saber Club,-,United States,Florida,Clearwater,-
185,Tattershall School of Defense,-,United States,-,-,-
1321,Tempered Mettle Historical Fencing,-,United States,Illinois,Champaign,-
643,Texas Armizare,-,United States,Texas,Houston,-
783,The Evangelista School of Fencing,-,United States,-,-,-
303,The Guild Academy,-,United States,Colorado,Denver,-
463,The HEMA Club at VCU,-,United States,Virginia,Richmond,-
1330,The Hilt and Cross,-,United States,Idaho,Boise,-
743,The Richmond Dueling Society,-,United States,Virginia,Richmond,-
1216,Tidewater Renaissance Fighting Arts,TRFA,United States,Virginia,Chesapeake,-
183,Tosetti Institute of MMA and Fitness,-,United States,California,Redwood City,-
316,Treasure Coast Fencing Club,-,United States,Florida,Stuart,-
69,Triangle Sword Guild,-,United States,North Carolina,Raleigh,-
308,Tri-Blade Fencing Academy,-,United States,Michigan,Marshall,-
357,Tri-State Historical Fencing Club,-,United States,New York,Port Jervis,-
156,True Edge Academy of Swordsmanship,-,United States,Utah,Millcreek,-
1359,Tuathair Academy of Swordsmanship,-,United States,Indiana,Indianapolis,-
1345,Tuathair Hema Academy,-,United States,Indiana,Indianapolis,-
252,Tucson Historic Fencing Club,-,United States,Arizona,Tucson,-
1286,Turul HEMA,-,United States,Nevada,Reno,-
1018,Two Ravens Fencing School,-,United States,Ohio,Cleveland,-
174,United Clans Swordsman Association,UCSA,United States,Utah,Salt Lake City,-
1443,University of Vermont Historical Fencing Club,-,United States,Vermont,-,-
315,University of West Florida Fencing,UWF Fencing,United States,Florida,Pensacola,-
1257,Valiant: School Of Arms,-,United States,Texas,Richardson,-
1396,Valley's heart HEMA,-,United States,Oregon,Cornvalis,-
892,Via Della Spada,-,United States,Maryland,-,-
887,Vier Blossen Historical Fencing,-,United States,Texas,Colleyville,-
1530,Vinas Arnis,-,United States,Arizona,Mesa,-
34,Virginia Academy of Fencing,VAF,United States,Virginia,Springfield,-
309,War Sword Historical Fencing,-,United States,Wisconsin,Madison,-
189,Warriors of Ash,-,United States,North Carolina,Fairview,-
1404,Western Circle of Swordfighters,-,United States,California,-,-
113,Western Swordsmanship Technique and Research,WSTR,United States,Connecticut,Willimantic,-
762,Wichita Fencing & HEMA Academy,Wichita Fencing Academy,United States,Kansas,Wichita,-
46,Wisconsin Historical Fencing Association,WHFA,United States,Wisconsin,Appleton,-
1130,Youngstown Historical Fencing,-,United States,Ohio,Youngstown,-
1150,Zufechten Fencing Club,-,United States,Montana,Missoula,-
1209,Quimera Esgrima Histórica,-,Uruguay,-,-,-
1208,SMCD HEMA Uruguay,-,Uruguay,-,Montevideo,-
1490,Phoenix,-,Uzbekistan,-,Tashkent,-
129,Medieval Armed Combat Society,MACS,South Africa,Gauteng Province,Pretoria,-
